{
"type": "FeatureCollection",
"name": "buffer_pf",
"crs": { "type": "name", "properties": { "name": "urn:ogc:def:crs:EPSG::31982" } },
"features": [
{ "type": "Feature", "properties": { "CD_MUN": "4314100", "NM_MUN": "Passo Fundo", "CD_RGI": "430025", "NM_RGI": "Passo Fundo", "CD_RGINT": "4306", "NM_RGINT": "Passo Fundo", "CD_UF": "43", "NM_UF": "Rio Grande do Sul", "SIGLA_UF": "RS", "CD_REGIA": "4", "NM_REGIA": "Sul", "SIGLA_RG": "S", "CD_CONCU": "4314100", "NM_CONCU": "Passo Fundo", "AREA_KM2": 784.406 }, "geometry": { "type": "MultiPolygon", "coordinates": [ [ [ [ 379545.59549139579758, 6829631.054679385386407 ], [ 375637.998235221428331, 6828545.993805561214685 ], [ 375501.297625191335101, 6828497.509084821678698 ], [ 375413.037935067433864, 6828483.526871571317315 ], [ 375132.983805325638968, 6828405.761493305675685 ], [ 373861.381391278642695, 6828485.978107508271933 ], [ 372738.725821282947436, 6828501.28219794947654 ], [ 371430.101629168959334, 6828396.672251438722014 ], [ 371429.596677722583991, 6828329.96630375366658 ], [ 371241.641513269685674, 6828331.389088909141719 ], [ 370860.049190300167538, 6828351.102900438010693 ], [ 369802.446378670574632, 6828266.55932083632797 ], [ 369187.700422302994411, 6828265.642732643522322 ], [ 369187.444163223553915, 6828437.512972865253687 ], [ 368900.286193846724927, 6828452.348119555972517 ], [ 368563.669658333412372, 6828437.783115367405117 ], [ 363644.904254368331749, 6827269.962421043775976 ], [ 360789.941987460770179, 6827390.585052171722054 ], [ 359373.80617280601291, 6827235.432453245855868 ], [ 357543.45197606808506, 6826648.734665934927762 ], [ 349289.313035485218279, 6826367.847920091822743 ], [ 341271.367487886163872, 6828348.316604563035071 ], [ 334097.283907336764969, 6832440.043842995539308 ], [ 333812.260214251466095, 6832659.620973244309425 ], [ 327816.312601289944723, 6839498.065824843011796 ], [ 327461.521068401983939, 6839781.026614043861628 ], [ 323667.683985871437471, 6842035.951222305186093 ], [ 321382.372280294657685, 6844754.668095999397337 ], [ 319500.8151030538138, 6846016.0008102087304 ], [ 317932.168625770835206, 6847872.343568590469658 ], [ 316048.718340262072161, 6849043.147679892368615 ], [ 310192.351001403003465, 6855772.242267290130258 ], [ 306573.58095120760845, 6863925.907436870038509 ], [ 305512.378841845027637, 6872783.198357737623155 ], [ 307102.575871845765505, 6881560.955803668126464 ], [ 310219.443755871907342, 6887581.970631318166852 ], [ 310369.885174224036746, 6888492.917861980386078 ], [ 310377.743855120847002, 6888987.285055877640843 ], [ 310502.411342056526337, 6889295.385340015403926 ], [ 310696.486193751799874, 6890470.540098787285388 ], [ 312771.372268330072984, 6895012.419558619149029 ], [ 313553.618672321899794, 6897318.127930103801191 ], [ 313573.547368314291816, 6897356.861673638224602 ], [ 313953.361334765795618, 6897823.981684055179358 ], [ 314502.033051956852432, 6899179.956013211049139 ], [ 314666.061241279763635, 6899436.54385915864259 ], [ 316603.466693626192864, 6902127.065072325058281 ], [ 316616.03487382887397, 6902142.627209560014307 ], [ 318775.067667174211238, 6904492.471153321675956 ], [ 319123.193181271664798, 6904981.680626060813665 ], [ 319145.564290940354113, 6905005.495505249127746 ], [ 321109.944022426847368, 6906819.574499356560409 ], [ 321387.471143240574747, 6907145.39505476411432 ], [ 321409.370310873026028, 6907164.914086494594812 ], [ 321656.457494622212835, 6907324.27254424802959 ], [ 322272.870138302794658, 6907893.521559944376349 ], [ 322591.161361383157782, 6908148.098573388531804 ], [ 322707.765240751032252, 6908002.311682114377618 ], [ 323193.087707015045453, 6908315.319579016417265 ], [ 323543.227048777509481, 6908558.625878141261637 ], [ 323551.616788498067763, 6908546.552298649214208 ], [ 323610.752427647123113, 6908584.691728263162076 ], [ 324980.662362608883996, 6910015.07632917445153 ], [ 324987.827527273388114, 6910021.663219348527491 ], [ 326068.485857403138652, 6910800.893754896707833 ], [ 326269.713914700143505, 6910976.755748557858169 ], [ 326287.002619966166094, 6910991.407924220897257 ], [ 326440.489256162254605, 6911069.134325999766588 ], [ 330748.445173197251279, 6914175.473029693588614 ], [ 337324.077739024534822, 6916858.737452422268689 ], [ 337617.181419778382406, 6916939.475051610730588 ], [ 337668.044741363846697, 6916754.824691407382488 ], [ 338713.211703796987422, 6917284.102479113265872 ], [ 338732.340304144890979, 6917288.671725537627935 ], [ 342555.171063883055467, 6917378.278268142603338 ], [ 345391.864758599898778, 6917827.463434066623449 ], [ 345429.343686297303066, 6917829.871109925210476 ], [ 346893.941905930754729, 6917704.247595313936472 ], [ 347229.407972858520225, 6917739.48289702180773 ], [ 347289.062524405831937, 6917741.681532138027251 ], [ 347309.053251827834174, 6917740.216918717138469 ], [ 353571.409798573178705, 6918591.990823293104768 ], [ 353773.786441830976401, 6918592.906783675774932 ], [ 358846.472297935339157, 6918184.208496593870223 ], [ 358853.836169445887208, 6918182.979921911843121 ], [ 368015.63086613942869, 6915072.669360706582665 ], [ 368591.505828921392094, 6914766.065151496790349 ], [ 374795.727536295424215, 6910323.675270458683372 ], [ 379701.777661869709846, 6909898.602527248673141 ], [ 388982.398387206776533, 6905663.275485256686807 ], [ 390157.939000343554653, 6904523.760487359017134 ], [ 390637.351275327964686, 6904290.807982599362731 ], [ 393782.609632719540969, 6901213.786107514984906 ], [ 393803.777901082648896, 6901234.20118747279048 ], [ 394213.332096789905336, 6900809.537010698579252 ], [ 394204.515183124109171, 6900801.033811741508543 ], [ 397515.195476419350598, 6897562.178835030645132 ], [ 397690.809549322410021, 6897323.984431670047343 ], [ 399759.287707755865995, 6893473.807659148238599 ], [ 399906.753185842360836, 6893279.357145993970335 ], [ 400104.590442281099968, 6892978.985277505591512 ], [ 400167.829222570639104, 6892883.986848435364664 ], [ 400310.34272612730274, 6892667.885045301169157 ], [ 400512.415882422006689, 6892358.573944700881839 ], [ 400533.051088619278744, 6892326.944405355490744 ], [ 400596.872241228295024, 6892228.984986301511526 ], [ 400644.399285125895403, 6892155.802995759993792 ], [ 400683.180236042011529, 6892095.897658516652882 ], [ 400727.108902433828916, 6892027.839351749047637 ], [ 400784.347612617537379, 6891938.896594682708383 ], [ 402359.268979778105859, 6889181.003587539307773 ], [ 402380.424740010348614, 6889138.93046027328819 ], [ 402943.731947251886595, 6887954.87794996611774 ], [ 403053.424598217359744, 6887710.690398854203522 ], [ 404097.621404905628879, 6884397.739824649877846 ], [ 404685.099620605178643, 6883185.850788165815175 ], [ 404690.730189779424109, 6883167.205512550659478 ], [ 404826.481390175467823, 6882085.266647899523377 ], [ 405156.561321936605964, 6881038.013397882692516 ], [ 405165.147562124591786, 6880992.99404551833868 ], [ 405213.473472993762698, 6880322.689207433722913 ], [ 408520.631483846402261, 6875172.504953431896865 ], [ 410902.688550707942341, 6866079.516720541752875 ], [ 410986.307748371851631, 6865236.759792640805244 ], [ 410317.25801245123148, 6855326.785718242637813 ], [ 408548.941246650181711, 6851144.626995456404984 ], [ 407832.315248442348093, 6848895.162560436874628 ], [ 407181.250241535308305, 6847909.968489842489362 ], [ 406449.109128406387754, 6846178.417671686038375 ], [ 404896.546829326020088, 6844452.746506022289395 ], [ 403289.044359716004692, 6842020.267591129988432 ], [ 400703.441149711317848, 6839792.114484892226756 ], [ 399805.8756015659892, 6838794.471435950137675 ], [ 399078.634580767131411, 6838391.931429109536111 ], [ 398141.536698160343803, 6837584.383871193043888 ], [ 398032.618434861826245, 6837446.153034362010658 ], [ 397762.9839396882453, 6837258.164634846150875 ], [ 397046.650415895099286, 6836640.861577684991062 ], [ 396537.744632400863338, 6836403.931291102431715 ], [ 390808.728614318650216, 6832409.677694778889418 ], [ 382433.660028975398745, 6829687.749301824718714 ], [ 379545.59549139579758, 6829631.054679385386407 ] ] ] ] } }
]
}
