{
"type": "FeatureCollection",
"name": "Cobertura de Abrigos em 1km",
"crs": { "type": "name", "properties": { "name": "urn:ogc:def:crs:EPSG::31982" } },
"features": [
{ "type": "Feature", "properties": { "ID": "Abrigo 1", "Nome": "Associação de Moradores do Loteamento Berthier", "Tipo": "CENTRO SOCIAL", "Área de Al": "600 m²", "Endereço": "General Osório, 207 Loteamentos Berthier" }, "geometry": { "type": "MultiPolygon", "coordinates": [ [ [ [ 361329.566111094900407, 6870117.886522204615176 ], [ 361020.549116719979793, 6870068.94303849991411 ], [ 360711.532122345059179, 6870117.886522204615176 ], [ 360432.763864427513909, 6870259.926044125109911 ], [ 360211.532122345059179, 6870481.157786207273602 ], [ 360069.492600424797274, 6870759.926044125109911 ], [ 360059.744926184124779, 6870821.470437126234174 ], [ 359764.121449340018444, 6870774.64827820006758 ], [ 359455.10445496509783, 6870823.591761904768646 ], [ 359419.064741411537398, 6870841.954913152381778 ], [ 359357.976643795089331, 6870851.630317304283381 ], [ 359079.20838587754406, 6870993.669839224778116 ], [ 358857.976643795089331, 6871214.901581306941807 ], [ 358715.937121874827426, 6871493.669839224778116 ], [ 358666.993638170009945, 6871802.686833599582314 ], [ 358715.937121874827426, 6872111.703827974386513 ], [ 358857.976643795089331, 6872390.472085892222822 ], [ 359079.20838587754406, 6872611.703827974386513 ], [ 359357.976643795089331, 6872753.743349894881248 ], [ 359666.993638170009945, 6872802.686833599582314 ], [ 359976.010632544930559, 6872753.743349894881248 ], [ 360012.050346098490991, 6872735.380198647268116 ], [ 360073.138443714939058, 6872725.704794495366514 ], [ 360351.906701632484328, 6872583.665272574871778 ], [ 360573.138443714939058, 6872362.433530492708087 ], [ 360715.177965635200962, 6872083.665272574871778 ], [ 360724.925639875873458, 6872022.120879573747516 ], [ 361020.549116719979793, 6872068.94303849991411 ], [ 361329.566111094900407, 6872019.999554795213044 ], [ 361608.334369012445677, 6871877.960032874718308 ], [ 361829.566111094900407, 6871656.728290792554617 ], [ 361971.605633015162311, 6871377.960032874718308 ], [ 362020.549116719979793, 6871068.94303849991411 ], [ 361971.605633015162311, 6870759.926044125109911 ], [ 361829.566111094900407, 6870481.157786207273602 ], [ 361608.334369012445677, 6870259.926044125109911 ], [ 361329.566111094900407, 6870117.886522204615176 ] ] ], [ [ [ 356971.469283304933924, 6871073.42173270508647 ], [ 356662.45228893001331, 6871024.478249000385404 ], [ 356353.435294555092696, 6871073.42173270508647 ], [ 356074.667036637547426, 6871215.461254625581205 ], [ 355853.435294555092696, 6871436.692996707744896 ], [ 355711.395772634830792, 6871715.461254625581205 ], [ 355662.45228893001331, 6872024.478249000385404 ], [ 355711.395772634830792, 6872333.495243375189602 ], [ 355853.435294555092696, 6872612.263501293025911 ], [ 356074.667036637547426, 6872833.495243375189602 ], [ 356343.995277722831815, 6872970.724836476147175 ], [ 356318.797963359975256, 6873129.814418200403452 ], [ 356367.741447064792737, 6873438.831412575207651 ], [ 356509.780968985054642, 6873717.599670493043959 ], [ 356731.012711067509372, 6873938.831412575207651 ], [ 357009.780968985054642, 6874080.870934495702386 ], [ 357318.797963359975256, 6874129.814418200403452 ], [ 357627.81495773489587, 6874080.870934495702386 ], [ 357906.58321565244114, 6873938.831412575207651 ], [ 358127.81495773489587, 6873717.599670493043959 ], [ 358269.854479655157775, 6873438.831412575207651 ], [ 358318.797963359975256, 6873129.814418200403452 ], [ 358269.854479655157775, 6872820.797423825599253 ], [ 358127.81495773489587, 6872542.029165907762945 ], [ 357906.58321565244114, 6872320.797423825599253 ], [ 357637.254974567156751, 6872183.567830724641681 ], [ 357662.45228893001331, 6872024.478249000385404 ], [ 357613.508805225195829, 6871715.461254625581205 ], [ 357471.469283304933924, 6871436.692996707744896 ], [ 357250.237541222479194, 6871215.461254625581205 ], [ 356971.469283304933924, 6871073.42173270508647 ] ] ], [ [ [ 363006.38737015001243, 6873269.062385500408709 ], [ 362697.370375775091816, 6873318.005869205109775 ], [ 362418.602117857546546, 6873460.04539112560451 ], [ 362197.370375775091816, 6873681.277133207768202 ], [ 362055.330853854829911, 6873960.04539112560451 ], [ 362006.38737015001243, 6874269.062385500408709 ], [ 362055.330853854829911, 6874578.079379875212908 ], [ 362066.340744364599232, 6874599.687506654299796 ], [ 362073.567519034841098, 6874645.315566174685955 ], [ 362215.607040955103002, 6874924.083824092522264 ], [ 362436.838783037557732, 6875145.315566174685955 ], [ 362715.607040955103002, 6875287.35508809518069 ], [ 363024.624035330023617, 6875336.298571799881756 ], [ 363333.641029704944231, 6875287.35508809518069 ], [ 363609.787225422100164, 6875146.651573595590889 ], [ 363759.412340459995903, 6875170.349863699637353 ], [ 364068.429334834916517, 6875121.406379994936287 ], [ 364347.197592752461787, 6874979.366858074441552 ], [ 364568.429334834916517, 6874758.135115992277861 ], [ 364710.468856755178422, 6874479.366858074441552 ], [ 364711.07828342821449, 6874475.51908949483186 ], [ 364992.067378114908934, 6874431.014788995496929 ], [ 365270.835636032454204, 6874288.975267075002193 ], [ 365492.067378114908934, 6874067.743524992838502 ], [ 365634.106900035170838, 6873788.975267075002193 ], [ 365683.05038373998832, 6873479.958272700197995 ], [ 365659.308196194819175, 6873330.056000124663115 ], [ 365737.608710545173381, 6873176.382588074542582 ], [ 365786.552194249990862, 6872867.365593699738383 ], [ 365737.608710545173381, 6872558.348599324934185 ], [ 365595.569188624911476, 6872279.580341407097876 ], [ 365374.337446542456746, 6872058.348599324934185 ], [ 365095.569188624911476, 6871916.309077404439449 ], [ 364786.552194249990862, 6871867.365593699738383 ], [ 364477.535199875070248, 6871916.309077404439449 ], [ 364198.766941957524978, 6872058.348599324934185 ], [ 363977.535199875070248, 6872279.580341407097876 ], [ 363835.495677954808343, 6872558.348599324934185 ], [ 363786.552194249990862, 6872867.365593699738383 ], [ 363810.294381795160007, 6873017.267866275273263 ], [ 363731.993867444805801, 6873170.941278325393796 ], [ 363731.384440771769732, 6873174.789046905003488 ], [ 363450.395346085075289, 6873219.293347404338419 ], [ 363270.591161876625847, 6873310.908155184239149 ], [ 363006.38737015001243, 6873269.062385500408709 ] ] ], [ [ [ 358826.667710434936453, 6874096.944388804957271 ], [ 358517.650716060015839, 6874048.000905100256205 ], [ 358208.633721685095225, 6874096.944388804957271 ], [ 357929.865463767549954, 6874238.983910725452006 ], [ 357708.633721685095225, 6874460.215652807615697 ], [ 357566.59419976483332, 6874738.983910725452006 ], [ 357517.650716060015839, 6875048.000905100256205 ], [ 357566.59419976483332, 6875357.017899475060403 ], [ 357708.633721685095225, 6875635.786157392896712 ], [ 357929.865463767549954, 6875857.017899475060403 ], [ 358155.353468374116346, 6875971.909776378422976 ], [ 358012.536749445076566, 6876114.726495306938887 ], [ 357870.497227524814662, 6876393.494753224775195 ], [ 357862.601826549274847, 6876443.344353092834353 ], [ 357820.581807835085783, 6876485.364371807314456 ], [ 357678.542285914823879, 6876764.132629725150764 ], [ 357629.598802210006397, 6877073.149624099954963 ], [ 357678.542285914823879, 6877382.166618474759161 ], [ 357820.581807835085783, 6877660.93487639259547 ], [ 358041.813549917540513, 6877882.166618474759161 ], [ 358320.581807835085783, 6878024.206140395253897 ], [ 358629.598802210006397, 6878073.149624099954963 ], [ 358938.615796584927011, 6878024.206140395253897 ], [ 359217.384054502472281, 6877882.166618474759161 ], [ 359438.615796584927011, 6877660.93487639259547 ], [ 359580.655318505188916, 6877382.166618474759161 ], [ 359588.550719480728731, 6877332.317018606700003 ], [ 359630.570738194917794, 6877290.296999892219901 ], [ 359772.610260115179699, 6877011.528741974383593 ], [ 359821.55374381999718, 6876702.511747599579394 ], [ 359772.610260115179699, 6876393.494753224775195 ], [ 359630.570738194917794, 6876114.726495306938887 ], [ 359409.338996112463064, 6875893.494753224775195 ], [ 359183.850991505896673, 6875778.602876321412623 ], [ 359326.667710434936453, 6875635.786157392896712 ], [ 359468.707232355198357, 6875357.017899475060403 ], [ 359517.650716060015839, 6875048.000905100256205 ], [ 359468.707232355198357, 6874738.983910725452006 ], [ 359326.667710434936453, 6874460.215652807615697 ], [ 359105.435968352481723, 6874238.983910725452006 ], [ 358826.667710434936453, 6874096.944388804957271 ] ] ], [ [ [ 366411.861446304945275, 6869598.440802805125713 ], [ 366102.844451930024661, 6869549.497319100424647 ], [ 365793.827457555104047, 6869598.440802805125713 ], [ 365515.059199637558777, 6869740.480324725620449 ], [ 365450.655477518972475, 6869804.88404684420675 ], [ 365443.626868259976618, 6869803.770824500359595 ], [ 365134.609873885056004, 6869852.714308205060661 ], [ 364855.841615967510734, 6869994.753830125555396 ], [ 364634.609873885056004, 6870215.985572207719088 ], [ 364492.570351964794099, 6870494.753830125555396 ], [ 364443.626868259976618, 6870803.770824500359595 ], [ 364492.570351964794099, 6871112.787818875163794 ], [ 364634.609873885056004, 6871391.556076793000102 ], [ 364855.841615967510734, 6871612.787818875163794 ], [ 365134.609873885056004, 6871754.827340795658529 ], [ 365443.626868259976618, 6871803.770824500359595 ], [ 365752.643862634897232, 6871754.827340795658529 ], [ 366031.412120552442502, 6871612.787818875163794 ], [ 366095.815842671028804, 6871548.384096756577492 ], [ 366102.844451930024661, 6871549.497319100424647 ], [ 366411.861446304945275, 6871500.553835395723581 ], [ 366690.629704222490545, 6871358.514313475228846 ], [ 366911.861446304945275, 6871137.282571393065155 ], [ 367053.90096822520718, 6870858.514313475228846 ], [ 367102.844451930024661, 6870549.497319100424647 ], [ 367053.90096822520718, 6870240.480324725620449 ], [ 366911.861446304945275, 6869961.71206680778414 ], [ 366690.629704222490545, 6869740.480324725620449 ], [ 366411.861446304945275, 6869598.440802805125713 ] ] ], [ [ [ 365188.619149180012755, 6875426.593604800291359 ], [ 364879.602154805092141, 6875475.537088504992425 ], [ 364600.833896887546871, 6875617.576610425487161 ], [ 364379.602154805092141, 6875838.808352507650852 ], [ 364237.562632884830236, 6876117.576610425487161 ], [ 364188.619149180012755, 6876426.593604800291359 ], [ 364237.562632884830236, 6876735.610599175095558 ], [ 364379.602154805092141, 6877014.378857092931867 ], [ 364591.463053853134625, 6877226.239756140857935 ], [ 364541.753164544817992, 6877323.800907124765217 ], [ 364492.80968084000051, 6877632.817901499569416 ], [ 364541.753164544817992, 6877941.834895874373615 ], [ 364683.792686465079896, 6878220.603153792209923 ], [ 364905.024428547534626, 6878441.834895874373615 ], [ 365183.792686465079896, 6878583.87441779486835 ], [ 365492.80968084000051, 6878632.817901499569416 ], [ 365801.826675214921124, 6878583.87441779486835 ], [ 366080.594933132466394, 6878441.834895874373615 ], [ 366301.826675214921124, 6878220.603153792209923 ], [ 366443.866197135183029, 6877941.834895874373615 ], [ 366492.80968084000051, 6877632.817901499569416 ], [ 366443.866197135183029, 6877323.800907124765217 ], [ 366301.826675214921124, 6877045.032649206928909 ], [ 366089.965776166878641, 6876833.171750159002841 ], [ 366139.675665475195274, 6876735.610599175095558 ], [ 366188.619149180012755, 6876426.593604800291359 ], [ 366139.675665475195274, 6876117.576610425487161 ], [ 365997.636143554933369, 6875838.808352507650852 ], [ 365776.404401472478639, 6875617.576610425487161 ], [ 365497.636143554933369, 6875475.537088504992425 ], [ 365188.619149180012755, 6875426.593604800291359 ] ] ] ] } }
]
}
