{
  "type": "FeatureCollection",
  "name": "Cobertura de Abrigos em 2km",
  "crs": {
    "type": "name",
    "properties": {
      "name": "urn:ogc:def:crs:EPSG::31982"
    }
  },
  "features": [
    {
      "type": "Feature",
      "geometry": {
        "type": "Polygon",
        "coordinates": [
          [
            [
              362868.30818174256,
              6870303.576173769
            ],
            [
              362784.3916454167,
              6870126.149564848
            ],
            [
              362683.4883413251,
              6869957.802572461
            ],
            [
              362566.57002344547,
              6869800.156470173
            ],
            [
              362434.76267909305,
              6869654.729476127
            ],
            [
              362289.33568504726,
              6869522.922131774
            ],
            [
              362131.68958275917,
              6869406.003813894
            ],
            [
              361963.34259037196,
              6869305.100509803
            ],
            [
              361785.9159814502,
              6869221.183973477
            ],
            [
              361601.1184712289,
              6869155.062367035
            ],
            [
              361410.72976075223,
              6869107.3724776935
            ],
            [
              361216.5833973791,
              6869078.573585155
            ],
            [
              361020.54911672,
              6869068.9430385
            ],
            [
              360824.5148360609,
              6869078.573585155
            ],
            [
              360630.3684726877,
              6869107.3724776935
            ],
            [
              360439.97976221103,
              6869155.062367035
            ],
            [
              360255.1822519898,
              6869221.183973477
            ],
            [
              360077.755643068,
              6869305.100509803
            ],
            [
              359909.4086506808,
              6869406.003813894
            ],
            [
              359751.7625483927,
              6869522.922131774
            ],
            [
              359606.3355543469,
              6869654.729476127
            ],
            [
              359476.62192452286,
              6869797.8464121735
            ],
            [
              359373.94080530776,
              6869813.077717394
            ],
            [
              359183.5520948311,
              6869860.767606735
            ],
            [
              359148.9886579187,
              6869873.1346022105
            ],
            [
              359086.42428366106,
              6869888.806162135
            ],
            [
              358901.6267734398,
              6869954.927768577
            ],
            [
              358724.200164518,
              6870038.8443049025
            ],
            [
              358555.8531721308,
              6870139.747608994
            ],
            [
              358398.2070698427,
              6870256.665926874
            ],
            [
              358252.78007579694,
              6870388.4732712265
            ],
            [
              358120.9727314445,
              6870533.900265273
            ],
            [
              358069.29299684893,
              6870603.582320865
            ],
            [
              357931.2388572573,
              6870478.4573422745
            ],
            [
              357773.5927549692,
              6870361.539024395
            ],
            [
              357605.245762582,
              6870260.635720303
            ],
            [
              357427.8191536602,
              6870176.719183978
            ],
            [
              357243.02164343896,
              6870110.597577536
            ],
            [
              357052.63293296227,
              6870062.907688194
            ],
            [
              356858.4865695891,
              6870034.108795656
            ],
            [
              356662.45228893,
              6870024.478249
            ],
            [
              356466.4180082709,
              6870034.108795656
            ],
            [
              356272.27164489776,
              6870062.907688194
            ],
            [
              356081.88293442107,
              6870110.597577536
            ],
            [
              355897.0854241998,
              6870176.719183978
            ],
            [
              355719.65881527803,
              6870260.635720303
            ],
            [
              355551.3118228908,
              6870361.539024395
            ],
            [
              355393.66572060273,
              6870478.4573422745
            ],
            [
              355248.23872655694,
              6870610.264686627
            ],
            [
              355116.4313822045,
              6870755.6916806735
            ],
            [
              354999.5130643249,
              6870913.337782961
            ],
            [
              354898.6097602333,
              6871081.684775349
            ],
            [
              354814.69322390744,
              6871259.11138427
            ],
            [
              354748.5716174656,
              6871443.908894491
            ],
            [
              354700.8817281235,
              6871634.297604968
            ],
            [
              354672.08283558564,
              6871828.443968342
            ],
            [
              354662.45228893,
              6872024.478249
            ],
            [
              354672.08283558564,
              6872220.512529659
            ],
            [
              354700.8817281235,
              6872414.658893033
            ],
            [
              354748.5716174656,
              6872605.047603509
            ],
            [
              354814.69322390744,
              6872789.845113731
            ],
            [
              354898.6097602333,
              6872967.271722652
            ],
            [
              354999.5130643249,
              6873135.618715039
            ],
            [
              355116.4313822045,
              6873293.264817327
            ],
            [
              355248.23872655694,
              6873438.691811373
            ],
            [
              355362.8913772575,
              6873542.606916756
            ],
            [
              355404.91729189554,
              6873710.383772709
            ],
            [
              355471.0388983374,
              6873895.181282931
            ],
            [
              355554.9554346633,
              6874072.607891852
            ],
            [
              355655.8587387549,
              6874240.9548842395
            ],
            [
              355772.7770566345,
              6874398.600986527
            ],
            [
              355904.5844009869,
              6874544.0279805735
            ],
            [
              356050.0113950327,
              6874675.835324926
            ],
            [
              356207.6574973208,
              6874792.753642806
            ],
            [
              356376.004489708,
              6874893.6569468975
            ],
            [
              356521.84451618954,
              6874962.634142338
            ],
            [
              356517.65071606,
              6875048.0009051
            ],
            [
              356527.28126271564,
              6875244.035185759
            ],
            [
              356556.0801552535,
              6875438.181549133
            ],
            [
              356603.7700445956,
              6875628.570259609
            ],
            [
              356669.89165103744,
              6875813.367769831
            ],
            [
              356753.8081873633,
              6875990.794378752
            ],
            [
              356853.275226332,
              6876156.745107549
            ],
            [
              356781.83973718743,
              6876307.782759369
            ],
            [
              356715.7181307456,
              6876492.580269591
            ],
            [
              356668.0282414035,
              6876682.968980067
            ],
            [
              356639.2293488656,
              6876877.115343441
            ],
            [
              356629.59880221,
              6877073.1496241
            ],
            [
              356639.2293488656,
              6877269.183904759
            ],
            [
              356668.0282414035,
              6877463.3302681325
            ],
            [
              356715.7181307456,
              6877653.718978609
            ],
            [
              356781.83973718743,
              6877838.516488831
            ],
            [
              356865.7562735133,
              6878015.943097752
            ],
            [
              356966.6595776049,
              6878184.290090139
            ],
            [
              357083.5778954845,
              6878341.936192427
            ],
            [
              357215.38523983693,
              6878487.363186473
            ],
            [
              357360.8122338827,
              6878619.170530826
            ],
            [
              357518.4583361708,
              6878736.088848705
            ],
            [
              357686.805328558,
              6878836.992152797
            ],
            [
              357864.2319374798,
              6878920.908689123
            ],
            [
              358049.02944770106,
              6878987.030295565
            ],
            [
              358239.41815817775,
              6879034.720184906
            ],
            [
              358433.5645215509,
              6879063.519077444
            ],
            [
              358629.59880221,
              6879073.1496241
            ],
            [
              358825.6330828691,
              6879063.519077444
            ],
            [
              359019.77944624226,
              6879034.720184906
            ],
            [
              359210.16815671895,
              6878987.030295565
            ],
            [
              359394.9656669402,
              6878920.908689123
            ],
            [
              359572.392275862,
              6878836.992152797
            ],
            [
              359740.7392682492,
              6878736.088848705
            ],
            [
              359898.3853705373,
              6878619.170530826
            ],
            [
              360043.8123645831,
              6878487.363186473
            ],
            [
              360175.6197089355,
              6878341.936192427
            ],
            [
              360292.5380268151,
              6878184.290090139
            ],
            [
              360393.4413309067,
              6878015.943097752
            ],
            [
              360477.3578672326,
              6877838.516488831
            ],
            [
              360488.86347974587,
              6877806.360456023
            ],
            [
              360585.3962725167,
              6877645.305221251
            ],
            [
              360669.3128088426,
              6877467.87861233
            ],
            [
              360735.4344152844,
              6877283.081102109
            ],
            [
              360783.1243046265,
              6877092.692391632
            ],
            [
              360811.9231971644,
              6876898.546028258
            ],
            [
              360821.55374382,
              6876702.5117476
            ],
            [
              360811.9231971644,
              6876506.477466941
            ],
            [
              360783.1243046265,
              6876312.331103567
            ],
            [
              360735.4344152844,
              6876121.942393091
            ],
            [
              360669.3128088426,
              6875937.144882869
            ],
            [
              360585.3962725167,
              6875759.718273948
            ],
            [
              360484.4929684251,
              6875591.3712815605
            ],
            [
              360451.8680650954,
              6875547.381691728
            ],
            [
              360479.2212768665,
              6875438.181549133
            ],
            [
              360508.0201694044,
              6875244.035185759
            ],
            [
              360517.65071606,
              6875048.0009051
            ],
            [
              360508.0201694044,
              6874851.966624442
            ],
            [
              360479.2212768665,
              6874657.820261068
            ],
            [
              360431.53138752445,
              6874467.431550591
            ],
            [
              360365.4097810826,
              6874282.63404037
            ],
            [
              360281.4932447567,
              6874105.207431449
            ],
            [
              360180.5899406651,
              6873936.860439061
            ],
            [
              360063.6716227855,
              6873779.214336773
            ],
            [
              360050.95198969945,
              6873765.180384309
            ],
            [
              360057.17428220226,
              6873764.257394406
            ],
            [
              360247.56299267896,
              6873716.567505064
            ],
            [
              360282.1264295913,
              6873704.200509589
            ],
            [
              360344.69080384896,
              6873688.528949665
            ],
            [
              360529.4883140702,
              6873622.407343223
            ],
            [
              360706.914922992,
              6873538.490806897
            ],
            [
              360875.2619153792,
              6873437.5875028055
            ],
            [
              361032.9080176673,
              6873320.669184926
            ],
            [
              361178.3350117131,
              6873188.861840573
            ],
            [
              361308.04864153714,
              6873045.7449045265
            ],
            [
              361410.72976075223,
              6873030.513599306
            ],
            [
              361444.1490178701,
              6873022.142511179
            ],
            [
              361343.4481455449,
              6873157.921919461
            ],
            [
              361242.5448414533,
              6873326.268911849
            ],
            [
              361158.62830512744,
              6873503.69552077
            ],
            [
              361092.5066986856,
              6873688.493030991
            ],
            [
              361044.8168093435,
              6873878.881741468
            ],
            [
              361016.01791680563,
              6874073.028104842
            ],
            [
              361006.38737015,
              6874269.0623855
            ],
            [
              361016.01791680563,
              6874465.096666159
            ],
            [
              361044.8168093435,
              6874659.243029533
            ],
            [
              361092.5066986856,
              6874849.631740009
            ],
            [
              361097.15728408715,
              6874862.629255489
            ],
            [
              361110.7433638656,
              6874916.867926309
            ],
            [
              361176.86497030745,
              6875101.6654365305
            ],
            [
              361260.7815066333,
              6875279.0920454515
            ],
            [
              361361.6848107249,
              6875447.439037839
            ],
            [
              361478.60312860453,
              6875605.085140127
            ],
            [
              361610.41047295695,
              6875750.512134173
            ],
            [
              361755.83746700274,
              6875882.319478526
            ],
            [
              361913.48356929084,
              6875999.237796405
            ],
            [
              362081.83056167804,
              6876100.141100497
            ],
            [
              362259.2571705998,
              6876184.057636823
            ],
            [
              362444.0546808211,
              6876250.179243265
            ],
            [
              362634.44339129777,
              6876297.869132606
            ],
            [
              362828.5897546709,
              6876326.668025144
            ],
            [
              363024.62403533,
              6876336.2985718
            ],
            [
              363193.4625425521,
              6876328.0040678205
            ],
            [
              363188.61914918,
              6876426.5936048
            ],
            [
              363198.24969583564,
              6876622.627885459
            ],
            [
              363227.0485883735,
              6876816.774248833
            ],
            [
              363274.7384777156,
              6877007.162959309
            ],
            [
              363340.86008415744,
              6877191.960469531
            ],
            [
              363424.7766204833,
              6877369.387078452
            ],
            [
              363499.61704670126,
              6877494.2507861
            ],
            [
              363492.80968084,
              6877632.8179015
            ],
            [
              363502.4402274956,
              6877828.852182158
            ],
            [
              363531.2391200335,
              6878022.998545532
            ],
            [
              363578.92900937557,
              6878213.387256009
            ],
            [
              363645.0506158174,
              6878398.18476623
            ],
            [
              363728.9671521433,
              6878575.611375151
            ],
            [
              363829.8704562349,
              6878743.958367539
            ],
            [
              363946.7887741145,
              6878901.604469826
            ],
            [
              364078.5961184669,
              6879047.031463873
            ],
            [
              364224.0231125127,
              6879178.8388082255
            ],
            [
              364381.6692148008,
              6879295.757126105
            ],
            [
              364550.016207188,
              6879396.660430197
            ],
            [
              364727.4428161098,
              6879480.576966522
            ],
            [
              364912.24032633106,
              6879546.698572964
            ],
            [
              365102.62903680775,
              6879594.388462306
            ],
            [
              365296.7754001809,
              6879623.187354844
            ],
            [
              365492.80968084,
              6879632.8179015
            ],
            [
              365688.8439614991,
              6879623.187354844
            ],
            [
              365882.99032487225,
              6879594.388462306
            ],
            [
              366073.37903534895,
              6879546.698572964
            ],
            [
              366258.1765455702,
              6879480.576966522
            ],
            [
              366435.603154492,
              6879396.660430197
            ],
            [
              366603.9501468792,
              6879295.757126105
            ],
            [
              366761.5962491673,
              6879178.8388082255
            ],
            [
              366907.0232432131,
              6879047.031463873
            ],
            [
              367038.8305875655,
              6878901.604469826
            ],
            [
              367155.7489054451,
              6878743.958367539
            ],
            [
              367256.6522095367,
              6878575.611375151
            ],
            [
              367340.5687458626,
              6878398.18476623
            ],
            [
              367406.69035230443,
              6878213.387256009
            ],
            [
              367454.3802416465,
              6878022.998545532
            ],
            [
              367483.1791341844,
              6877828.852182158
            ],
            [
              367492.80968084,
              6877632.8179015
            ],
            [
              367483.1791341844,
              6877436.783620841
            ],
            [
              367454.3802416465,
              6877242.637257467
            ],
            [
              367406.69035230443,
              6877052.248546991
            ],
            [
              367340.5687458626,
              6876867.451036769
            ],
            [
              367256.6522095367,
              6876690.024427848
            ],
            [
              367181.81178331876,
              6876565.1607202
            ],
            [
              367188.61914918,
              6876426.5936048
            ],
            [
              367178.9886025244,
              6876230.559324142
            ],
            [
              367150.1897099865,
              6876036.412960768
            ],
            [
              367102.49982064444,
              6875846.024250291
            ],
            [
              367036.3782142026,
              6875661.22674007
            ],
            [
              366952.4616778767,
              6875483.800131149
            ],
            [
              366851.5583737851,
              6875315.453138761
            ],
            [
              366734.6400559055,
              6875157.807036473
            ],
            [
              366602.8327115531,
              6875012.380042427
            ],
            [
              366457.4057175073,
              6874880.572698074
            ],
            [
              366299.7596152192,
              6874763.654380195
            ],
            [
              366243.1695182532,
              6874729.735581399
            ],
            [
              366345.9896083451,
              6874591.098738739
            ],
            [
              366446.8929124367,
              6874422.751746352
            ],
            [
              366530.80944876256,
              6874245.325137431
            ],
            [
              366596.9310552044,
              6874060.527627209
            ],
            [
              366644.6209445465,
              6873870.138916733
            ],
            [
              366673.41983708437,
              6873675.992553359
            ],
            [
              366682.1075112624,
              6873499.150882891
            ],
            [
              366700.4328657144,
              6873447.934948209
            ],
            [
              366748.1227550565,
              6873257.546237732
            ],
            [
              366776.92164759437,
              6873063.399874358
            ],
            [
              366786.55219425,
              6872867.3655937
            ],
            [
              366776.92164759437,
              6872671.331313041
            ],
            [
              366748.1227550565,
              6872477.184949667
            ],
            [
              366739.6262170228,
              6872443.264868449
            ],
            [
              366868.2113166602,
              6872397.256384123
            ],
            [
              367045.637925582,
              6872313.3398477975
            ],
            [
              367213.9849179692,
              6872212.436543706
            ],
            [
              367371.6310202573,
              6872095.518225826
            ],
            [
              367517.0580143031,
              6871963.7108814735
            ],
            [
              367648.8653586555,
              6871818.283887427
            ],
            [
              367765.7836765351,
              6871660.6377851395
            ],
            [
              367866.6869806267,
              6871492.290792752
            ],
            [
              367950.6035169526,
              6871314.864183831
            ],
            [
              368016.72512339446,
              6871130.066673609
            ],
            [
              368064.4150127365,
              6870939.677963133
            ],
            [
              368093.2139052744,
              6870745.531599759
            ],
            [
              368102.84445193,
              6870549.4973191
            ],
            [
              368093.2139052744,
              6870353.463038442
            ],
            [
              368064.4150127365,
              6870159.316675068
            ],
            [
              368016.72512339446,
              6869968.927964591
            ],
            [
              367950.6035169526,
              6869784.13045437
            ],
            [
              367866.6869806267,
              6869606.703845449
            ],
            [
              367765.7836765351,
              6869438.356853061
            ],
            [
              367648.8653586555,
              6869280.710750774
            ],
            [
              367517.0580143031,
              6869135.283756727
            ],
            [
              367371.6310202573,
              6869003.4764123745
            ],
            [
              367213.9849179692,
              6868886.558094495
            ],
            [
              367045.637925582,
              6868785.654790403
            ],
            [
              366868.2113166602,
              6868701.738254078
            ],
            [
              366683.41380643897,
              6868635.616647636
            ],
            [
              366493.0250959623,
              6868587.926758294
            ],
            [
              366298.87873258913,
              6868559.127865756
            ],
            [
              366102.84445193,
              6868549.4973191
            ],
            [
              365906.8101712709,
              6868559.127865756
            ],
            [
              365712.66380789777,
              6868587.926758294
            ],
            [
              365522.2750974211,
              6868635.616647636
            ],
            [
              365337.4775871998,
              6868701.738254078
            ],
            [
              365160.05097827804,
              6868785.654790403
            ],
            [
              365069.74398471013,
              6868839.782719298
            ],
            [
              365053.4462242277,
              6868842.200263694
            ],
            [
              364863.05751375103,
              6868889.8901530355
            ],
            [
              364678.2600035298,
              6868956.011759478
            ],
            [
              364500.833394608,
              6869039.928295803
            ],
            [
              364332.4864022208,
              6869140.831599895
            ],
            [
              364174.8402999327,
              6869257.749917774
            ],
            [
              364029.4133058869,
              6869389.557262127
            ],
            [
              363897.6059615345,
              6869534.9842561735
            ],
            [
              363780.6876436549,
              6869692.630358461
            ],
            [
              363679.7843395633,
              6869860.977350849
            ],
            [
              363595.8678032374,
              6870038.40395977
            ],
            [
              363529.74619679555,
              6870223.201469991
            ],
            [
              363482.0563074535,
              6870413.590180468
            ],
            [
              363453.2574149156,
              6870607.736543842
            ],
            [
              363443.62686826,
              6870803.7708245
            ],
            [
              363453.2574149156,
              6870999.805105159
            ],
            [
              363482.0563074535,
              6871193.951468533
            ],
            [
              363514.6695450044,
              6871324.150811149
            ],
            [
              363372.3386318769,
              6871453.152031327
            ],
            [
              363240.5312875245,
              6871598.579025373
            ],
            [
              363123.6129696449,
              6871756.225127661
            ],
            [
              363022.7096655533,
              6871924.572120048
            ],
            [
              362938.7931292274,
              6872101.998728969
            ],
            [
              362876.737834687,
              6872275.431658751
            ],
            [
              362810.3530894909,
              6872278.692932156
            ],
            [
              362616.20672611776,
              6872307.491824694
            ],
            [
              362582.7874689999,
              6872315.862912822
            ],
            [
              362683.4883413251,
              6872180.083504539
            ],
            [
              362784.3916454167,
              6872011.736512152
            ],
            [
              362868.30818174256,
              6871834.3099032305
            ],
            [
              362934.4297881844,
              6871649.512393009
            ],
            [
              362982.11967752647,
              6871459.123682532
            ],
            [
              363010.91857006436,
              6871264.977319159
            ],
            [
              363020.54911672,
              6871068.9430385
            ],
            [
              363010.91857006436,
              6870872.908757841
            ],
            [
              362982.11967752647,
              6870678.762394467
            ],
            [
              362934.4297881844,
              6870488.373683991
            ],
            [
              362868.30818174256,
              6870303.576173769
            ]
          ]
        ]
      },
      "properties": {
        "cobertura": "Raio territorial de 2 km (2.000 m)",
        "finalidade": "Área de influência e atendimento prioritário dos Abrigos da Defesa Civil",
        "total_abrigos": 17,
        "raio_metros": 2000,
        "area_ha": 9743.37,
        "area_km2": 97.43
      }
    }
  ]
}