{
"type": "FeatureCollection",
"name": "Edificações em APP",
"crs": { "type": "name", "properties": { "name": "urn:ogc:def:crs:EPSG::31982" } },
"features": [
{ "type": "Feature", "properties": { "id": 1, "Edificacoe": "Residência" }, "geometry": { "type": "Point", "coordinates": [ 363181.19959103979636, 6873835.838106984272599 ] } },
{ "type": "Feature", "properties": { "id": 2, "Edificacoe": "Residência" }, "geometry": { "type": "Point", "coordinates": [ 363190.729811059893109, 6873830.251426282338798 ] } },
{ "type": "Feature", "properties": { "id": 3, "Edificacoe": "Residência" }, "geometry": { "type": "Point", "coordinates": [ 363193.687465548922773, 6873823.897946269251406 ] } },
{ "type": "Feature", "properties": { "id": 4, "Edificacoe": "Residência" }, "geometry": { "type": "Point", "coordinates": [ 363206.832596611173358, 6873817.215837978757918 ] } },
{ "type": "Feature", "properties": { "id": 5, "Edificacoe": "Residência" }, "geometry": { "type": "Point", "coordinates": [ 363217.348701460985467, 6873811.300529001280665 ] } },
{ "type": "Feature", "properties": { "id": 6, "Edificacoe": "Residência" }, "geometry": { "type": "Point", "coordinates": [ 363226.769378722296096, 6873805.823391060344875 ] } },
{ "type": "Feature", "properties": { "id": 7, "Edificacoe": "Residência" }, "geometry": { "type": "Point", "coordinates": [ 363232.246516664919909, 6873802.318022776395082 ] } },
{ "type": "Feature", "properties": { "id": 8, "Edificacoe": "Residência" }, "geometry": { "type": "Point", "coordinates": [ 363236.628227018984035, 6873806.590190371498466 ] } },
{ "type": "Feature", "properties": { "id": 9, "Edificacoe": "Residência" }, "geometry": { "type": "Point", "coordinates": [ 363235.094628395047039, 6873796.621799316257238 ] } },
{ "type": "Feature", "properties": { "id": 10, "Edificacoe": "Residência" }, "geometry": { "type": "Point", "coordinates": [ 363240.243138061079662, 6873792.021003444679081 ] } },
{ "type": "Feature", "properties": { "id": 11, "Edificacoe": "Residência" }, "geometry": { "type": "Point", "coordinates": [ 363246.706160833360627, 6873786.43432274274528 ] } },
{ "type": "Feature", "properties": { "id": 12, "Edificacoe": "Residência" }, "geometry": { "type": "Point", "coordinates": [ 363251.19741394626908, 6873781.504898594692349 ] } },
{ "type": "Feature", "properties": { "id": 13, "Edificacoe": "Residência" }, "geometry": { "type": "Point", "coordinates": [ 363254.045525676454417, 6873775.918217893689871 ] } },
{ "type": "Feature", "properties": { "id": 14, "Edificacoe": "Residência" }, "geometry": { "type": "Point", "coordinates": [ 363247.363417386484798, 6873766.607083391398191 ] } },
{ "type": "Feature", "properties": { "id": 15, "Edificacoe": "Residência" }, "geometry": { "type": "Point", "coordinates": [ 363135.082089563482441, 6873845.477869764901698 ] } },
{ "type": "Feature", "properties": { "id": 16, "Edificacoe": "Residência" }, "geometry": { "type": "Point", "coordinates": [ 363143.188253718544729, 6873854.131747714243829 ] } },
{ "type": "Feature", "properties": { "id": 17, "Edificacoe": "Residência" }, "geometry": { "type": "Point", "coordinates": [ 363151.95167442667298, 6873841.315244928002357 ] } },
{ "type": "Feature", "properties": { "id": 18, "Edificacoe": "Residência" }, "geometry": { "type": "Point", "coordinates": [ 363015.68048241478391, 6873974.026297278702259 ] } },
{ "type": "Feature", "properties": { "id": 19, "Edificacoe": "Residência" }, "geometry": { "type": "Point", "coordinates": [ 363008.724517227674369, 6873987.664370756596327 ] } },
{ "type": "Feature", "properties": { "id": 20, "Edificacoe": "Residência" }, "geometry": { "type": "Point", "coordinates": [ 363007.629089639114682, 6874006.012782864272594 ] } },
{ "type": "Feature", "properties": { "id": 21, "Edificacoe": "Residência" }, "geometry": { "type": "Point", "coordinates": [ 362997.551155824738089, 6874014.9952890900895 ] } },
{ "type": "Feature", "properties": { "id": 22, "Edificacoe": "Residência" }, "geometry": { "type": "Point", "coordinates": [ 362982.160398206033278, 6874027.592706358060241 ] } },
{ "type": "Feature", "properties": { "id": 23, "Edificacoe": "Residência" }, "geometry": { "type": "Point", "coordinates": [ 362966.249312482657842, 6874038.341589569114149 ] } },
{ "type": "Feature", "properties": { "id": 24, "Edificacoe": "Residência" }, "geometry": { "type": "Point", "coordinates": [ 362956.280921427125577, 6874051.924891667440534 ] } },
{ "type": "Feature", "properties": { "id": 25, "Edificacoe": "Residência" }, "geometry": { "type": "Point", "coordinates": [ 362948.558156928105745, 6874061.071712031029165 ] } },
{ "type": "Feature", "properties": { "id": 26, "Edificacoe": "Residência" }, "geometry": { "type": "Point", "coordinates": [ 362942.697619329614099, 6874075.20272792223841 ] } },
{ "type": "Feature", "properties": { "id": 27, "Edificacoe": "Residência" }, "geometry": { "type": "Point", "coordinates": [ 362935.632111383660231, 6874098.480564179830253 ] } },
{ "type": "Feature", "properties": { "id": 28, "Edificacoe": "Residência" }, "geometry": { "type": "Point", "coordinates": [ 362936.563224833924323, 6874114.090407314710319 ] } },
{ "type": "Feature", "properties": { "id": 29, "Edificacoe": "Residência" }, "geometry": { "type": "Point", "coordinates": [ 362926.540062398824375, 6874169.573814676143229 ] } },
{ "type": "Feature", "properties": { "id": 30, "Edificacoe": "Residência" }, "geometry": { "type": "Point", "coordinates": [ 363045.120098856277764, 6874038.61544646974653 ] } },
{ "type": "Feature", "properties": { "id": 31, "Edificacoe": "Residência" }, "geometry": { "type": "Point", "coordinates": [ 363062.208769237273373, 6874000.604109147563577 ] } },
{ "type": "Feature", "properties": { "id": 32, "Edificacoe": "Residência" }, "geometry": { "type": "Point", "coordinates": [ 363062.975568549241871, 6873980.448241518810391 ] } },
{ "type": "Feature", "properties": { "id": 33, "Edificacoe": "Residência" }, "geometry": { "type": "Point", "coordinates": [ 363066.371394073648844, 6873964.893169761635363 ] } },
{ "type": "Feature", "properties": { "id": 34, "Edificacoe": "Residência" }, "geometry": { "type": "Point", "coordinates": [ 363060.127456819114741, 6873957.718119055964053 ] } },
{ "type": "Feature", "properties": { "id": 35, "Edificacoe": "Residência" }, "geometry": { "type": "Point", "coordinates": [ 363691.805775739310775, 6873470.14329940918833 ] } },
{ "type": "Feature", "properties": { "id": 36, "Edificacoe": "Residência" }, "geometry": { "type": "Point", "coordinates": [ 363706.813133702031337, 6873486.355627719312906 ] } },
{ "type": "Feature", "properties": { "id": 37, "Edificacoe": "Residência" }, "geometry": { "type": "Point", "coordinates": [ 363683.535297446069308, 6873524.202650901861489 ] } },
{ "type": "Feature", "properties": { "id": 38, "Edificacoe": "Residência" }, "geometry": { "type": "Point", "coordinates": [ 363739.730732737050857, 6873508.483265006914735 ] } },
{ "type": "Feature", "properties": { "id": 39, "Edificacoe": "Residência" }, "geometry": { "type": "Point", "coordinates": [ 363749.425266895443201, 6873512.152947428636253 ] } },
{ "type": "Feature", "properties": { "id": 40, "Edificacoe": "Residência" }, "geometry": { "type": "Point", "coordinates": [ 363757.202802774088923, 6873518.780284338630736 ] } },
{ "type": "Feature", "properties": { "id": 41, "Edificacoe": "Residência" }, "geometry": { "type": "Point", "coordinates": [ 363705.827248872432392, 6873538.443209551274776 ] } },
{ "type": "Feature", "properties": { "id": 42, "Edificacoe": "Residência" }, "geometry": { "type": "Point", "coordinates": [ 363715.521783031057566, 6873552.026511648669839 ] } },
{ "type": "Feature", "properties": { "id": 43, "Edificacoe": "Residência" }, "geometry": { "type": "Point", "coordinates": [ 362903.892097006784752, 6874192.824265242554247 ] } },
{ "type": "Feature", "properties": { "id": 44, "Edificacoe": "Residência" }, "geometry": { "type": "Point", "coordinates": [ 362910.245577020104975, 6874304.010165479034185 ] } },
{ "type": "Feature", "properties": { "id": 45, "Edificacoe": "Residência" }, "geometry": { "type": "Point", "coordinates": [ 362869.87907038332196, 6874387.426976342685521 ] } },
{ "type": "Feature", "properties": { "id": 46, "Edificacoe": "Residência" }, "geometry": { "type": "Point", "coordinates": [ 362867.962072103400715, 6874420.289803996682167 ] } },
{ "type": "Feature", "properties": { "id": 47, "Edificacoe": "Residência" }, "geometry": { "type": "Point", "coordinates": [ 362860.513164501462597, 6874431.244079882279038 ] } },
{ "type": "Feature", "properties": { "id": 48, "Edificacoe": "Residência" }, "geometry": { "type": "Point", "coordinates": [ 362843.150637223443482, 6874450.359291301108897 ] } },
{ "type": "Feature", "properties": { "id": 49, "Edificacoe": "Residência" }, "geometry": { "type": "Point", "coordinates": [ 362724.597986455832142, 6874638.635908079333603 ] } },
{ "type": "Feature", "properties": { "id": 50, "Edificacoe": "Residência" }, "geometry": { "type": "Point", "coordinates": [ 362701.950021063210443, 6874631.460857373662293 ] } },
{ "type": "Feature", "properties": { "id": 51, "Edificacoe": "Residência" }, "geometry": { "type": "Point", "coordinates": [ 362689.434760864300188, 6874632.967070307582617 ] } },
{ "type": "Feature", "properties": { "id": 52, "Edificacoe": "Residência" }, "geometry": { "type": "Point", "coordinates": [ 362687.353448446083348, 6874639.484864459373057 ] } },
{ "type": "Feature", "properties": { "id": 53, "Edificacoe": "Residência" }, "geometry": { "type": "Point", "coordinates": [ 362607.934948278416414, 6874627.681632194668055 ] } },
{ "type": "Feature", "properties": { "id": 54, "Edificacoe": "Residência" }, "geometry": { "type": "Point", "coordinates": [ 362602.622124474088196, 6874637.211852214299142 ] } },
{ "type": "Feature", "properties": { "id": 55, "Edificacoe": "Residência" }, "geometry": { "type": "Point", "coordinates": [ 362596.597272737242747, 6874635.678253591060638 ] } },
{ "type": "Feature", "properties": { "id": 56, "Edificacoe": "Residência" }, "geometry": { "type": "Point", "coordinates": [ 362586.574110302259214, 6874633.323084275238216 ] } },
{ "type": "Feature", "properties": { "id": 57, "Edificacoe": "Residência" }, "geometry": { "type": "Point", "coordinates": [ 362569.70452543918509, 6874628.530588574707508 ] } },
{ "type": "Feature", "properties": { "id": 58, "Edificacoe": "Residência" }, "geometry": { "type": "Point", "coordinates": [ 362143.528422125556972, 6874954.52983891684562 ] } },
{ "type": "Feature", "properties": { "id": 59, "Edificacoe": "Residência" }, "geometry": { "type": "Point", "coordinates": [ 362151.853671798307914, 6874940.179737507365644 ] } },
{ "type": "Feature", "properties": { "id": 60, "Edificacoe": "Residência" }, "geometry": { "type": "Point", "coordinates": [ 362161.055263541871682, 6874931.525859558023512 ] } },
{ "type": "Feature", "properties": { "id": 61, "Edificacoe": "Residência" }, "geometry": { "type": "Point", "coordinates": [ 362166.31331596680684, 6874925.172379544936121 ] } },
{ "type": "Feature", "properties": { "id": 62, "Edificacoe": "Residência" }, "geometry": { "type": "Point", "coordinates": [ 361863.810987396689598, 6875095.23751266207546 ] } },
{ "type": "Feature", "properties": { "id": 63, "Edificacoe": "Residência" }, "geometry": { "type": "Point", "coordinates": [ 361823.992194554128218, 6875113.366839254274964 ] } },
{ "type": "Feature", "properties": { "id": 64, "Edificacoe": "Residência" }, "geometry": { "type": "Point", "coordinates": [ 361811.230463147861883, 6875119.556005129590631 ] } },
{ "type": "Feature", "properties": { "id": 65, "Edificacoe": "Residência" }, "geometry": { "type": "Point", "coordinates": [ 361796.223105185141321, 6875119.172605473548174 ] } },
{ "type": "Feature", "properties": { "id": 66, "Edificacoe": "Residência" }, "geometry": { "type": "Point", "coordinates": [ 361791.348452416190412, 6875131.003223429434001 ] } },
{ "type": "Feature", "properties": { "id": 67, "Edificacoe": "Residência" }, "geometry": { "type": "Point", "coordinates": [ 361783.077974122890737, 6875131.715251361951232 ] } },
{ "type": "Feature", "properties": { "id": 68, "Edificacoe": "Residência" }, "geometry": { "type": "Point", "coordinates": [ 361778.751035148219671, 6875123.006602033041418 ] } },
{ "type": "Feature", "properties": { "id": 69, "Edificacoe": "Residência" }, "geometry": { "type": "Point", "coordinates": [ 361773.657296861638315, 6875128.264654457569122 ] } },
{ "type": "Feature", "properties": { "id": 70, "Edificacoe": "Residência" }, "geometry": { "type": "Point", "coordinates": [ 361776.34109445346985, 6875136.58990413043648 ] } },
{ "type": "Feature", "properties": { "id": 71, "Edificacoe": "Residência" }, "geometry": { "type": "Point", "coordinates": [ 361762.922106494137552, 6875133.741792400367558 ] } },
{ "type": "Feature", "properties": { "id": 72, "Edificacoe": "Residência" }, "geometry": { "type": "Point", "coordinates": [ 361746.326378528028727, 6875135.165848264470696 ] } },
{ "type": "Feature", "properties": { "id": 73, "Edificacoe": "Residência" }, "geometry": { "type": "Point", "coordinates": [ 361723.541484686778858, 6875142.340898969210684 ] } },
{ "type": "Feature", "properties": { "id": 74, "Edificacoe": "Residência" }, "geometry": { "type": "Point", "coordinates": [ 361725.294168828404509, 6875153.18563209567219 ] } },
{ "type": "Feature", "properties": { "id": 75, "Edificacoe": "Residência" }, "geometry": { "type": "Point", "coordinates": [ 361704.645358784880955, 6875160.196368660777807 ] } },
{ "type": "Feature", "properties": { "id": 76, "Edificacoe": "Residência" }, "geometry": { "type": "Point", "coordinates": [ 361693.800625658535864, 6875163.154023149982095 ] } },
{ "type": "Feature", "properties": { "id": 77, "Edificacoe": "Residência" }, "geometry": { "type": "Point", "coordinates": [ 361697.08690842409851, 6875153.623803129419684 ] } },
{ "type": "Feature", "properties": { "id": 78, "Edificacoe": "Residência" }, "geometry": { "type": "Point", "coordinates": [ 361687.118517368566245, 6875157.89597072545439 ] } },
{ "type": "Feature", "properties": { "id": 79, "Edificacoe": "Residência" }, "geometry": { "type": "Point", "coordinates": [ 361673.97338630631566, 6875172.57470041140914 ] } },
{ "type": "Feature", "properties": { "id": 80, "Edificacoe": "Residência" }, "geometry": { "type": "Point", "coordinates": [ 361640.891473132767715, 6875186.705716303549707 ] } },
{ "type": "Feature", "properties": { "id": 81, "Edificacoe": "Residência" }, "geometry": { "type": "Point", "coordinates": [ 361643.57527072459925, 6875194.592794940806925 ] } },
{ "type": "Feature", "properties": { "id": 82, "Edificacoe": "Residência" }, "geometry": { "type": "Point", "coordinates": [ 361656.391773510316852, 6875182.707405605353415 ] } },
{ "type": "Feature", "properties": { "id": 83, "Edificacoe": "Residência" }, "geometry": { "type": "Point", "coordinates": [ 361655.186803162912838, 6875175.422812142409384 ] } },
{ "type": "Feature", "properties": { "id": 84, "Edificacoe": "Residência" }, "geometry": { "type": "Point", "coordinates": [ 361639.138788991142064, 6875198.864962536841631 ] } },
{ "type": "Feature", "properties": { "id": 85, "Edificacoe": "Residência" }, "geometry": { "type": "Point", "coordinates": [ 361631.142167594924103, 6875201.548760128207505 ] } },
{ "type": "Feature", "properties": { "id": 86, "Edificacoe": "Residência" }, "geometry": { "type": "Point", "coordinates": [ 361488.900895225640852, 6875330.425815917551517 ] } },
{ "type": "Feature", "properties": { "id": 87, "Edificacoe": "Residência" }, "geometry": { "type": "Point", "coordinates": [ 363674.467617203656118, 6873445.470598396845162 ] } },
{ "type": "Feature", "properties": { "id": 88, "Edificacoe": "Residência" }, "geometry": { "type": "Point", "coordinates": [ 363701.179543259553611, 6873468.879748346284032 ] } },
{ "type": "Feature", "properties": { "id": 89, "Edificacoe": "Residência" }, "geometry": { "type": "Point", "coordinates": [ 363717.693423793010879, 6873479.773115154355764 ] } },
{ "type": "Feature", "properties": { "id": 90, "Edificacoe": "Residência" }, "geometry": { "type": "Point", "coordinates": [ 363711.319645341485739, 6873474.384375191293657 ] } },
{ "type": "Feature", "properties": { "id": 91, "Edificacoe": "Residência" }, "geometry": { "type": "Point", "coordinates": [ 363749.214655407762621, 6873500.053319317288697 ] } },
{ "type": "Feature", "properties": { "id": 92, "Edificacoe": "Residência" }, "geometry": { "type": "Point", "coordinates": [ 363852.469866322295275, 6873617.620560026727617 ] } },
{ "type": "Feature", "properties": { "id": 93, "Edificacoe": "Residência" }, "geometry": { "type": "Point", "coordinates": [ 363856.757680916925892, 6873629.093361238949001 ] } },
{ "type": "Feature", "properties": { "id": 94, "Edificacoe": "Residência" }, "geometry": { "type": "Point", "coordinates": [ 363863.015572487551253, 6873638.596085475757718 ] } },
{ "type": "Feature", "properties": { "id": 95, "Edificacoe": "Residência" }, "geometry": { "type": "Point", "coordinates": [ 363880.862152151763439, 6873646.93994090333581 ] } },
{ "type": "Feature", "properties": { "id": 96, "Edificacoe": "Residência" }, "geometry": { "type": "Point", "coordinates": [ 363932.953305132861715, 6873715.892635059542954 ] } },
{ "type": "Feature", "properties": { "id": 97, "Edificacoe": "Residência" }, "geometry": { "type": "Point", "coordinates": [ 363964.242762985872105, 6873761.89972679130733 ] } },
{ "type": "Feature", "properties": { "id": 98, "Edificacoe": "Residência" }, "geometry": { "type": "Point", "coordinates": [ 364015.580651240772568, 6873753.497927923686802 ] } },
{ "type": "Feature", "properties": { "id": 99, "Edificacoe": "Residência" }, "geometry": { "type": "Point", "coordinates": [ 364046.928052534058224, 6873743.415769282728434 ] } },
{ "type": "Feature", "properties": { "id": 100, "Edificacoe": "Residência" }, "geometry": { "type": "Point", "coordinates": [ 364047.739260700647719, 6873750.890473102219403 ] } },
{ "type": "Feature", "properties": { "id": 101, "Edificacoe": "Residência" }, "geometry": { "type": "Point", "coordinates": [ 364071.032523768837564, 6873785.94625458586961 ] } },
{ "type": "Feature", "properties": { "id": 102, "Edificacoe": "Residência" }, "geometry": { "type": "Point", "coordinates": [ 364058.980288151476998, 6873785.94625458586961 ] } },
{ "type": "Feature", "properties": { "id": 103, "Edificacoe": "Residência" }, "geometry": { "type": "Point", "coordinates": [ 364064.19519779359689, 6873797.303168918006122 ] } },
{ "type": "Feature", "properties": { "id": 104, "Edificacoe": "Residência" }, "geometry": { "type": "Point", "coordinates": [ 364051.563527771504596, 6873798.114377084188163 ] } },
{ "type": "Feature", "properties": { "id": 105, "Edificacoe": "Residência" }, "geometry": { "type": "Point", "coordinates": [ 364016.21802908583777, 6873797.013451714068651 ] } },
{ "type": "Feature", "properties": { "id": 106, "Edificacoe": "Residência" }, "geometry": { "type": "Point", "coordinates": [ 364004.57139755168464, 6873797.882603321224451 ] } },
{ "type": "Feature", "properties": { "id": 107, "Edificacoe": "Residência" }, "geometry": { "type": "Point", "coordinates": [ 364010.076024396170396, 6873807.211497236974537 ] } },
{ "type": "Feature", "properties": { "id": 108, "Edificacoe": "Residência" }, "geometry": { "type": "Point", "coordinates": [ 364007.700343336968217, 6873819.147845973260701 ] } },
{ "type": "Feature", "properties": { "id": 109, "Edificacoe": "Residência" }, "geometry": { "type": "Point", "coordinates": [ 364021.606769049365539, 6873821.002036068588495 ] } },
{ "type": "Feature", "properties": { "id": 110, "Edificacoe": "Residência" }, "geometry": { "type": "Point", "coordinates": [ 364017.666615097492468, 6873863.358691050671041 ] } },
{ "type": "Feature", "properties": { "id": 111, "Edificacoe": "Residência" }, "geometry": { "type": "Point", "coordinates": [ 364010.249854717578273, 6873872.745528406463563 ] } },
{ "type": "Feature", "properties": { "id": 112, "Edificacoe": "Residência" }, "geometry": { "type": "Point", "coordinates": [ 364003.991963146952912, 6873880.97349695302546 ] } },
{ "type": "Feature", "properties": { "id": 113, "Edificacoe": "Residência" }, "geometry": { "type": "Point", "coordinates": [ 364022.302090334997047, 6873874.252057858742774 ] } },
{ "type": "Feature", "properties": { "id": 114, "Edificacoe": "Residência" }, "geometry": { "type": "Point", "coordinates": [ 364078.681057910609525, 6873908.554574614390731 ] } },
{ "type": "Feature", "properties": { "id": 115, "Edificacoe": "Residência" }, "geometry": { "type": "Point", "coordinates": [ 364066.976482936006505, 6873906.294780435971916 ] } },
{ "type": "Feature", "properties": { "id": 116, "Edificacoe": "Residência" }, "geometry": { "type": "Point", "coordinates": [ 364057.879362782521639, 6873900.094832305796444 ] } },
{ "type": "Feature", "properties": { "id": 117, "Edificacoe": "Residência" }, "geometry": { "type": "Point", "coordinates": [ 364064.716688757704105, 6873926.517041157931089 ] } },
{ "type": "Feature", "properties": { "id": 118, "Edificacoe": "Residência" }, "geometry": { "type": "Point", "coordinates": [ 364087.082856778521091, 6873935.092670347541571 ] } },
{ "type": "Feature", "properties": { "id": 119, "Edificacoe": "Residência" }, "geometry": { "type": "Point", "coordinates": [ 364085.228666683484334, 6873859.186763334088027 ] } },
{ "type": "Feature", "properties": { "id": 120, "Edificacoe": "Residência" }, "geometry": { "type": "Point", "coordinates": [ 364103.07524634769652, 6873873.556736569851637 ] } },
{ "type": "Feature", "properties": { "id": 121, "Edificacoe": "Residência" }, "geometry": { "type": "Point", "coordinates": [ 364075.523140405013692, 6873872.890387004241347 ] } },
{ "type": "Feature", "properties": { "id": 122, "Edificacoe": "Residência" }, "geometry": { "type": "Point", "coordinates": [ 364104.63971924042562, 6873940.742155794985592 ] } },
{ "type": "Feature", "properties": { "id": 123, "Edificacoe": "Residência" }, "geometry": { "type": "Point", "coordinates": [ 364121.385373535740655, 6873954.185033984482288 ] } },
{ "type": "Feature", "properties": { "id": 124, "Edificacoe": "Residência" }, "geometry": { "type": "Point", "coordinates": [ 364300.198830820911098, 6874073.780295110307634 ] } },
{ "type": "Feature", "properties": { "id": 125, "Edificacoe": "Residência" }, "geometry": { "type": "Point", "coordinates": [ 364309.035205492400564, 6874077.401760139502585 ] } },
{ "type": "Feature", "properties": { "id": 126, "Edificacoe": "Residência" }, "geometry": { "type": "Point", "coordinates": [ 364101.105169371759985, 6873888.911748294718564 ] } },
{ "type": "Feature", "properties": { "id": 127, "Edificacoe": "Residência" }, "geometry": { "type": "Point", "coordinates": [ 364119.994730964419432, 6873961.804596401751041 ] } },
{ "type": "Feature", "properties": { "id": 128, "Edificacoe": "Residência" }, "geometry": { "type": "Point", "coordinates": [ 364111.245271453575697, 6873958.270046534016728 ] } },
{ "type": "Feature", "properties": { "id": 129, "Edificacoe": "Residência" }, "geometry": { "type": "Point", "coordinates": [ 364335.080781982745975, 6873944.624366302974522 ] } },
{ "type": "Feature", "properties": { "id": 130, "Edificacoe": "Residência" }, "geometry": { "type": "Point", "coordinates": [ 364346.205922552617267, 6873945.319687588140368 ] } },
{ "type": "Feature", "properties": { "id": 131, "Edificacoe": "Residência" }, "geometry": { "type": "Point", "coordinates": [ 364331.488288673688658, 6873923.996501496061683 ] } },
{ "type": "Feature", "properties": { "id": 132, "Edificacoe": "Residência" }, "geometry": { "type": "Point", "coordinates": [ 364401.368077878549229, 6873893.981799333356321 ] } },
{ "type": "Feature", "properties": { "id": 133, "Edificacoe": "Residência" }, "geometry": { "type": "Point", "coordinates": [ 364347.248904481239151, 6873854.232599172741175 ] } },
{ "type": "Feature", "properties": { "id": 134, "Edificacoe": "Residência" }, "geometry": { "type": "Point", "coordinates": [ 364345.684431588451844, 6873835.922471985220909 ] } },
{ "type": "Feature", "properties": { "id": 135, "Edificacoe": "Residência" }, "geometry": { "type": "Point", "coordinates": [ 364329.594905447913334, 6873847.484765757806599 ] } },
{ "type": "Feature", "properties": { "id": 136, "Edificacoe": "Residência" }, "geometry": { "type": "Point", "coordinates": [ 364399.340057462104596, 6873852.030748435296118 ] } },
{ "type": "Feature", "properties": { "id": 137, "Edificacoe": "Residência" }, "geometry": { "type": "Point", "coordinates": [ 364400.730700033309404, 6873832.793526199646294 ] } },
{ "type": "Feature", "properties": { "id": 138, "Edificacoe": "Residência" }, "geometry": { "type": "Point", "coordinates": [ 364397.601754248025827, 6873821.900159392505884 ] } },
{ "type": "Feature", "properties": { "id": 139, "Edificacoe": "Residência" }, "geometry": { "type": "Point", "coordinates": [ 364391.343862677458674, 6873814.367512131109834 ] } },
{ "type": "Feature", "properties": { "id": 140, "Edificacoe": "Residência" }, "geometry": { "type": "Point", "coordinates": [ 364384.390649821260013, 6873804.748901014216244 ] } },
{ "type": "Feature", "properties": { "id": 141, "Edificacoe": "Residência" }, "geometry": { "type": "Point", "coordinates": [ 364376.973889441287611, 6873797.332140633836389 ] } },
{ "type": "Feature", "properties": { "id": 142, "Edificacoe": "Residência" }, "geometry": { "type": "Point", "coordinates": [ 364365.269314466626383, 6873786.960264788940549 ] } },
{ "type": "Feature", "properties": { "id": 143, "Edificacoe": "Residência" }, "geometry": { "type": "Point", "coordinates": [ 364359.59085730073275, 6873782.324789552018046 ] } },
{ "type": "Feature", "properties": { "id": 144, "Edificacoe": "Residência" }, "geometry": { "type": "Point", "coordinates": [ 364354.144173896696884, 6873777.573427433148026 ] } },
{ "type": "Feature", "properties": { "id": 145, "Edificacoe": "Residência" }, "geometry": { "type": "Point", "coordinates": [ 364345.800318469293416, 6873771.547309624962509 ] } },
{ "type": "Feature", "properties": { "id": 146, "Edificacoe": "Residência" }, "geometry": { "type": "Point", "coordinates": [ 364334.675177899363916, 6873767.954816315323114 ] } },
{ "type": "Feature", "properties": { "id": 147, "Edificacoe": "Residência" }, "geometry": { "type": "Point", "coordinates": [ 364329.576155138143804, 6873776.87810614798218 ] } },
{ "type": "Feature", "properties": { "id": 148, "Edificacoe": "Residência" }, "geometry": { "type": "Point", "coordinates": [ 364328.714808426855598, 6873760.516543499194086 ] } },
{ "type": "Feature", "properties": { "id": 149, "Edificacoe": "Residência" }, "geometry": { "type": "Point", "coordinates": [ 364275.225207978859544, 6873760.885716577991843 ] } },
{ "type": "Feature", "properties": { "id": 150, "Edificacoe": "Residência" }, "geometry": { "type": "Point", "coordinates": [ 364265.287907938589342, 6873747.442838391289115 ] } },
{ "type": "Feature", "properties": { "id": 151, "Edificacoe": "Residência" }, "geometry": { "type": "Point", "coordinates": [ 364296.258676868921611, 6873740.199908331036568 ] } },
{ "type": "Feature", "properties": { "id": 152, "Edificacoe": "Residência" }, "geometry": { "type": "Point", "coordinates": [ 364295.737185904639773, 6873830.070184499025345 ] } },
{ "type": "Feature", "properties": { "id": 153, "Edificacoe": "Residência" }, "geometry": { "type": "Point", "coordinates": [ 364277.13734151434619, 6873822.073989714495838 ] } },
{ "type": "Feature", "properties": { "id": 154, "Edificacoe": "Residência" }, "geometry": { "type": "Point", "coordinates": [ 364252.859039958100766, 6873814.193681810982525 ] } },
{ "type": "Feature", "properties": { "id": 155, "Edificacoe": "Residência" }, "geometry": { "type": "Point", "coordinates": [ 364206.388400702446233, 6873787.481755756773055 ] } },
{ "type": "Feature", "properties": { "id": 156, "Edificacoe": "Residência" }, "geometry": { "type": "Point", "coordinates": [ 364343.656411171890795, 6873695.35168541315943 ] } },
{ "type": "Feature", "properties": { "id": 157, "Edificacoe": "Residência" }, "geometry": { "type": "Point", "coordinates": [ 364353.043248527741525, 6873695.235798532143235 ] } },
{ "type": "Feature", "properties": { "id": 158, "Edificacoe": "Residência" }, "geometry": { "type": "Point", "coordinates": [ 364374.598208381969016, 6873625.12423556484282 ] } },
{ "type": "Feature", "properties": { "id": 159, "Edificacoe": "Residência" }, "geometry": { "type": "Point", "coordinates": [ 364379.465457381331362, 6873613.187886828556657 ] } },
{ "type": "Feature", "properties": { "id": 160, "Edificacoe": "Residência" }, "geometry": { "type": "Point", "coordinates": [ 364351.66709181672195, 6873612.883683766238391 ] } },
{ "type": "Feature", "properties": { "id": 161, "Edificacoe": "Residência" }, "geometry": { "type": "Point", "coordinates": [ 364337.224689279973973, 6873766.332399982027709 ] } },
{ "type": "Feature", "properties": { "id": 162, "Edificacoe": "Residência" }, "geometry": { "type": "Point", "coordinates": [ 364380.58086861029733, 6873581.478339033201337 ] } },
{ "type": "Feature", "properties": { "id": 163, "Edificacoe": "Residência" }, "geometry": { "type": "Point", "coordinates": [ 364396.805031941446941, 6873578.928827652707696 ] } },
{ "type": "Feature", "properties": { "id": 164, "Edificacoe": "Residência" }, "geometry": { "type": "Point", "coordinates": [ 364413.666573117719963, 6873581.420395593158901 ] } },
{ "type": "Feature", "properties": { "id": 165, "Edificacoe": "Residência" }, "geometry": { "type": "Point", "coordinates": [ 364424.328166163933929, 6873590.865176388993859 ] } },
{ "type": "Feature", "properties": { "id": 166, "Edificacoe": "Residência" }, "geometry": { "type": "Point", "coordinates": [ 364398.833052357833367, 6873586.055870830081403 ] } },
{ "type": "Feature", "properties": { "id": 167, "Edificacoe": "Residência" }, "geometry": { "type": "Point", "coordinates": [ 364430.412227413151413, 6873598.339880209416151 ] } },
{ "type": "Feature", "properties": { "id": 168, "Edificacoe": "Residência" }, "geometry": { "type": "Point", "coordinates": [ 364423.487986277148593, 6873604.858517262153327 ] } },
{ "type": "Feature", "properties": { "id": 169, "Edificacoe": "Residência" }, "geometry": { "type": "Point", "coordinates": [ 364434.265466204262339, 6873612.362192803062499 ] } },
{ "type": "Feature", "properties": { "id": 170, "Edificacoe": "Residência" }, "geometry": { "type": "Point", "coordinates": [ 364440.001866810605861, 6873621.691086717881262 ] } },
{ "type": "Feature", "properties": { "id": 171, "Edificacoe": "Residência" }, "geometry": { "type": "Point", "coordinates": [ 364458.369937439099886, 6873662.425325367599726 ] } },
{ "type": "Feature", "properties": { "id": 172, "Edificacoe": "Residência" }, "geometry": { "type": "Point", "coordinates": [ 364463.816620843077544, 6873672.043936485424638 ] } },
{ "type": "Feature", "properties": { "id": 173, "Edificacoe": "Residência" }, "geometry": { "type": "Point", "coordinates": [ 364480.040784174227156, 6873692.671801292337477 ] } },
{ "type": "Feature", "properties": { "id": 174, "Edificacoe": "Residência" }, "geometry": { "type": "Point", "coordinates": [ 364422.560891229659319, 6873721.527634645812213 ] } },
{ "type": "Feature", "properties": { "id": 175, "Edificacoe": "Residência" }, "geometry": { "type": "Point", "coordinates": [ 364438.350478757289238, 6873737.201335293240845 ] } },
{ "type": "Feature", "properties": { "id": 176, "Edificacoe": "Residência" }, "geometry": { "type": "Point", "coordinates": [ 364443.333614637609571, 6873745.023699756711721 ] } },
{ "type": "Feature", "properties": { "id": 177, "Edificacoe": "Residência" }, "geometry": { "type": "Point", "coordinates": [ 364485.226722096151207, 6873700.001646512188017 ] } },
{ "type": "Feature", "properties": { "id": 178, "Edificacoe": "Residência" }, "geometry": { "type": "Point", "coordinates": [ 364478.215565799502656, 6873706.201594643294811 ] } },
{ "type": "Feature", "properties": { "id": 179, "Edificacoe": "Residência" }, "geometry": { "type": "Point", "coordinates": [ 364489.166876048024278, 6873712.923033737577498 ] } },
{ "type": "Feature", "properties": { "id": 180, "Edificacoe": "Residência" }, "geometry": { "type": "Point", "coordinates": [ 364500.523790379869752, 6873781.296293490566313 ] } },
{ "type": "Feature", "properties": { "id": 181, "Edificacoe": "Residência" }, "geometry": { "type": "Point", "coordinates": [ 364520.890909704496153, 6873753.019894540309906 ] } },
{ "type": "Feature", "properties": { "id": 182, "Edificacoe": "Residência" }, "geometry": { "type": "Point", "coordinates": [ 364523.498364525497891, 6873768.983312388882041 ] } },
{ "type": "Feature", "properties": { "id": 183, "Edificacoe": "Residência" }, "geometry": { "type": "Point", "coordinates": [ 364532.769315000448842, 6873760.987117604352534 ] } },
{ "type": "Feature", "properties": { "id": 184, "Edificacoe": "Residência" }, "geometry": { "type": "Point", "coordinates": [ 364538.042168083076831, 6873756.235755486413836 ] } },
{ "type": "Feature", "properties": { "id": 185, "Edificacoe": "Residência" }, "geometry": { "type": "Point", "coordinates": [ 364536.999186154571362, 6873736.187325085513294 ] } },
{ "type": "Feature", "properties": { "id": 186, "Edificacoe": "Residência" }, "geometry": { "type": "Point", "coordinates": [ 364550.992527027672622, 6873737.693854538723826 ] } },
{ "type": "Feature", "properties": { "id": 187, "Edificacoe": "Residência" }, "geometry": { "type": "Point", "coordinates": [ 364556.381266991258599, 6873731.957453931681812 ] } },
{ "type": "Feature", "properties": { "id": 188, "Edificacoe": "Residência" }, "geometry": { "type": "Point", "coordinates": [ 364747.246959893614985, 6873568.904612455517054 ] } },
{ "type": "Feature", "properties": { "id": 189, "Edificacoe": "Residência" }, "geometry": { "type": "Point", "coordinates": [ 364772.046752414025832, 6873590.923119833692908 ] } },
{ "type": "Feature", "properties": { "id": 190, "Edificacoe": "Residência" }, "geometry": { "type": "Point", "coordinates": [ 364785.953178126423154, 6873584.085793858394027 ] } },
{ "type": "Feature", "properties": { "id": 191, "Edificacoe": "Residência" }, "geometry": { "type": "Point", "coordinates": [ 364792.302756764460355, 6873589.092930954881012 ] } },
{ "type": "Feature", "properties": { "id": 192, "Edificacoe": "Residência" }, "geometry": { "type": "Point", "coordinates": [ 364815.417417604534421, 6873603.438902976922691 ] } },
{ "type": "Feature", "properties": { "id": 193, "Edificacoe": "Residência" }, "geometry": { "type": "Point", "coordinates": [ 364822.080913258425426, 6873608.595869178883731 ] } },
{ "type": "Feature", "properties": { "id": 194, "Edificacoe": "Residência" }, "geometry": { "type": "Point", "coordinates": [ 364816.054795449716039, 6873616.53412052243948 ] } },
{ "type": "Feature", "properties": { "id": 195, "Edificacoe": "Residência" }, "geometry": { "type": "Point", "coordinates": [ 364832.33690222131554, 6873619.431292545050383 ] } },
{ "type": "Feature", "properties": { "id": 196, "Edificacoe": "Residência" }, "geometry": { "type": "Point", "coordinates": [ 364830.424768685887102, 6873630.904093757271767 ] } },
{ "type": "Feature", "properties": { "id": 197, "Edificacoe": "Residência" }, "geometry": { "type": "Point", "coordinates": [ 364840.680757648777217, 6873649.156277505680919 ] } },
{ "type": "Feature", "properties": { "id": 198, "Edificacoe": "Residência" }, "geometry": { "type": "Point", "coordinates": [ 364822.146099629229866, 6873649.286650246009231 ] } },
{ "type": "Feature", "properties": { "id": 199, "Edificacoe": "Residência" }, "geometry": { "type": "Point", "coordinates": [ 364827.650726473715622, 6873644.882948770187795 ] } },
{ "type": "Feature", "properties": { "id": 200, "Edificacoe": "Residência" }, "geometry": { "type": "Point", "coordinates": [ 364834.951599972730037, 6873639.030661283060908 ] } },
{ "type": "Feature", "properties": { "id": 201, "Edificacoe": "Residência" }, "geometry": { "type": "Point", "coordinates": [ 364841.499208745663054, 6873633.294260676950216 ] } },
{ "type": "Feature", "properties": { "id": 202, "Edificacoe": "Residência" }, "geometry": { "type": "Point", "coordinates": [ 364867.573756956146099, 6873697.234847232699394 ] } },
{ "type": "Feature", "properties": { "id": 203, "Edificacoe": "Residência" }, "geometry": { "type": "Point", "coordinates": [ 364867.617854037263896, 6873724.860856376588345 ] } },
{ "type": "Feature", "properties": { "id": 204, "Edificacoe": "Residência" }, "geometry": { "type": "Point", "coordinates": [ 364845.294504096091259, 6873750.108236663043499 ] } },
{ "type": "Feature", "properties": { "id": 205, "Edificacoe": "Residência" }, "geometry": { "type": "Point", "coordinates": [ 364830.591356077173259, 6873913.740512543357909 ] } },
{ "type": "Feature", "properties": { "id": 206, "Edificacoe": "Residência" }, "geometry": { "type": "Point", "coordinates": [ 364827.868014375213534, 6873931.876809410750866 ] } },
{ "type": "Feature", "properties": { "id": 207, "Edificacoe": "Residência" }, "geometry": { "type": "Point", "coordinates": [ 364818.249403257505037, 6873934.426320791244507 ] } },
{ "type": "Feature", "properties": { "id": 208, "Edificacoe": "Residência" }, "geometry": { "type": "Point", "coordinates": [ 364792.116911606339272, 6873977.825957702472806 ] } },
{ "type": "Feature", "properties": { "id": 209, "Edificacoe": "Residência" }, "geometry": { "type": "Point", "coordinates": [ 364805.154185711755417, 6873970.87274484615773 ] } },
{ "type": "Feature", "properties": { "id": 210, "Edificacoe": "Residência" }, "geometry": { "type": "Point", "coordinates": [ 364714.443729658552911, 6873917.130203811451793 ] } },
{ "type": "Feature", "properties": { "id": 211, "Edificacoe": "Residência" }, "geometry": { "type": "Point", "coordinates": [ 364702.159720279276371, 6873926.517041167244315 ] } },
{ "type": "Feature", "properties": { "id": 212, "Edificacoe": "Residência" }, "geometry": { "type": "Point", "coordinates": [ 364695.78594182775123, 6873932.427272094413638 ] } },
{ "type": "Feature", "properties": { "id": 213, "Edificacoe": "Residência" }, "geometry": { "type": "Point", "coordinates": [ 364690.686919066531118, 6873945.406602759845555 ] } },
{ "type": "Feature", "properties": { "id": 214, "Edificacoe": "Residência" }, "geometry": { "type": "Point", "coordinates": [ 364679.445891615585424, 6873953.402797544375062 ] } },
{ "type": "Feature", "properties": { "id": 215, "Edificacoe": "Residência" }, "geometry": { "type": "Point", "coordinates": [ 364675.158077020896599, 6873962.673748020082712 ] } },
{ "type": "Feature", "properties": { "id": 216, "Edificacoe": "Residência" }, "geometry": { "type": "Point", "coordinates": [ 364667.277769117266871, 6873970.785829685628414 ] } },
{ "type": "Feature", "properties": { "id": 217, "Edificacoe": "Residência" }, "geometry": { "type": "Point", "coordinates": [ 364659.976895618252456, 6873981.563309612683952 ] } },
{ "type": "Feature", "properties": { "id": 218, "Edificacoe": "Residência" }, "geometry": { "type": "Point", "coordinates": [ 364655.747024464129936, 6873993.847318991087377 ] } },
{ "type": "Feature", "properties": { "id": 219, "Edificacoe": "Residência" }, "geometry": { "type": "Point", "coordinates": [ 364661.657255391939543, 6874000.916418727487326 ] } },
{ "type": "Feature", "properties": { "id": 220, "Edificacoe": "Residência" }, "geometry": { "type": "Point", "coordinates": [ 364723.881267524848226, 6874016.843621926382184 ] } },
{ "type": "Feature", "properties": { "id": 221, "Edificacoe": "Residência" }, "geometry": { "type": "Point", "coordinates": [ 364719.448594329063781, 6874026.896808847784996 ] } },
{ "type": "Feature", "properties": { "id": 222, "Edificacoe": "Residência" }, "geometry": { "type": "Point", "coordinates": [ 364699.805768010322936, 6874052.681639856658876 ] } },
{ "type": "Feature", "properties": { "id": 223, "Edificacoe": "Residência" }, "geometry": { "type": "Point", "coordinates": [ 364628.071788710483816, 6874045.091049154289067 ] } },
{ "type": "Feature", "properties": { "id": 224, "Edificacoe": "Residência" }, "geometry": { "type": "Point", "coordinates": [ 364690.505845815176144, 6874075.859016043134034 ] } },
{ "type": "Feature", "properties": { "id": 225, "Edificacoe": "Residência" }, "geometry": { "type": "Point", "coordinates": [ 364682.697967212123331, 6874067.377544943243265 ] } },
{ "type": "Feature", "properties": { "id": 226, "Edificacoe": "Residência" }, "geometry": { "type": "Point", "coordinates": [ 364685.392337193829007, 6874096.523095497861505 ] } },
{ "type": "Feature", "properties": { "id": 227, "Edificacoe": "Residência" }, "geometry": { "type": "Point", "coordinates": [ 364682.958712694176938, 6874101.99875062238425 ] } },
{ "type": "Feature", "properties": { "id": 228, "Edificacoe": "Residência" }, "geometry": { "type": "Point", "coordinates": [ 364666.473803880857304, 6874109.357567560859025 ] } },
{ "type": "Feature", "properties": { "id": 229, "Edificacoe": "Residência" }, "geometry": { "type": "Point", "coordinates": [ 364665.720539154775906, 6874122.510728547349572 ] } },
{ "type": "Feature", "properties": { "id": 230, "Edificacoe": "Residência" }, "geometry": { "type": "Point", "coordinates": [ 364599.940248363185674, 6874062.988329327665269 ] } },
{ "type": "Feature", "properties": { "id": 231, "Edificacoe": "Residência" }, "geometry": { "type": "Point", "coordinates": [ 364583.136650627362542, 6874076.199433754198253 ] } },
{ "type": "Feature", "properties": { "id": 232, "Edificacoe": "Residência" }, "geometry": { "type": "Point", "coordinates": [ 364569.157795614388306, 6874131.028414299711585 ] } },
{ "type": "Feature", "properties": { "id": 233, "Edificacoe": "Residência" }, "geometry": { "type": "Point", "coordinates": [ 364576.748386315652169, 6874165.794478581286967 ] } },
{ "type": "Feature", "properties": { "id": 234, "Edificacoe": "Residência" }, "geometry": { "type": "Point", "coordinates": [ 364610.036892864562105, 6874199.720362972468138 ] } },
{ "type": "Feature", "properties": { "id": 235, "Edificacoe": "Residência" }, "geometry": { "type": "Point", "coordinates": [ 364617.569540125434287, 6874211.366994506679475 ] } },
{ "type": "Feature", "properties": { "id": 236, "Edificacoe": "Residência" }, "geometry": { "type": "Point", "coordinates": [ 364628.810567576205358, 6874230.430386420339346 ] } },
{ "type": "Feature", "properties": { "id": 237, "Edificacoe": "Residência" }, "geometry": { "type": "Point", "coordinates": [ 364682.871797533240169, 6874183.95974716451019 ] } },
{ "type": "Feature", "properties": { "id": 238, "Edificacoe": "Residência" }, "geometry": { "type": "Point", "coordinates": [ 364710.279044874827377, 6874187.378410151228309 ] } },
{ "type": "Feature", "properties": { "id": 239, "Edificacoe": "Residência" }, "geometry": { "type": "Point", "coordinates": [ 364724.533131229982246, 6874191.782111627049744 ] } },
{ "type": "Feature", "properties": { "id": 240, "Edificacoe": "Residência" }, "geometry": { "type": "Point", "coordinates": [ 364730.733079360099509, 6874199.60447609052062 ] } },
{ "type": "Feature", "properties": { "id": 241, "Edificacoe": "Residência" }, "geometry": { "type": "Point", "coordinates": [ 364958.219026638718788, 6874294.284057815559208 ] } },
{ "type": "Feature", "properties": { "id": 242, "Edificacoe": "Residência" }, "geometry": { "type": "Point", "coordinates": [ 364963.26010595948901, 6874312.999789086170495 ] } },
{ "type": "Feature", "properties": { "id": 243, "Edificacoe": "Residência" }, "geometry": { "type": "Point", "coordinates": [ 364861.453481056552846, 6874392.78790661226958 ] } },
{ "type": "Feature", "properties": { "id": 244, "Edificacoe": "Residência" }, "geometry": { "type": "Point", "coordinates": [ 364848.358263510745019, 6874399.509345706552267 ] } },
{ "type": "Feature", "properties": { "id": 245, "Edificacoe": "Residência" }, "geometry": { "type": "Point", "coordinates": [ 364856.702118938148487, 6874412.083072287961841 ] } },
{ "type": "Feature", "properties": { "id": 246, "Edificacoe": "Residência" }, "geometry": { "type": "Point", "coordinates": [ 364900.449416491726879, 6874421.180192443542182 ] } },
{ "type": "Feature", "properties": { "id": 247, "Edificacoe": "Residência" }, "geometry": { "type": "Point", "coordinates": [ 364912.269878347287886, 6874432.18944613263011 ] } },
{ "type": "Feature", "properties": { "id": 248, "Edificacoe": "Residência" }, "geometry": { "type": "Point", "coordinates": [ 364982.207610992598347, 6874380.330066912807524 ] } },
{ "type": "Feature", "properties": { "id": 249, "Edificacoe": "Residência" }, "geometry": { "type": "Point", "coordinates": [ 364996.577584228711203, 6874378.649707139469683 ] } },
{ "type": "Feature", "properties": { "id": 250, "Edificacoe": "Residência" }, "geometry": { "type": "Point", "coordinates": [ 365006.02236502507003, 6874376.969347366131842 ] } },
{ "type": "Feature", "properties": { "id": 251, "Edificacoe": "Residência" }, "geometry": { "type": "Point", "coordinates": [ 365014.540050773881376, 6874374.130118782632053 ] } },
{ "type": "Feature", "properties": { "id": 252, "Edificacoe": "Residência" }, "geometry": { "type": "Point", "coordinates": [ 364930.232344892458059, 6874451.252838043496013 ] } },
{ "type": "Feature", "properties": { "id": 253, "Edificacoe": "Residência" }, "geometry": { "type": "Point", "coordinates": [ 364942.052806748019066, 6874442.5033785328269 ] } },
{ "type": "Feature", "properties": { "id": 254, "Edificacoe": "Residência" }, "geometry": { "type": "Point", "coordinates": [ 364946.050904140342027, 6874455.946256721392274 ] } },
{ "type": "Feature", "properties": { "id": 255, "Edificacoe": "Residência" }, "geometry": { "type": "Point", "coordinates": [ 364962.506841233291198, 6874452.643480614759028 ] } },
{ "type": "Feature", "properties": { "id": 256, "Edificacoe": "Residência" }, "geometry": { "type": "Point", "coordinates": [ 364968.30118528008461, 6874438.273507378995419 ] } },
{ "type": "Feature", "properties": { "id": 257, "Edificacoe": "Residência" }, "geometry": { "type": "Point", "coordinates": [ 365013.149408202618361, 6874427.206310248933733 ] } },
{ "type": "Feature", "properties": { "id": 258, "Edificacoe": "Residência" }, "geometry": { "type": "Point", "coordinates": [ 365003.125193001586013, 6874431.030577319674194 ] } },
{ "type": "Feature", "properties": { "id": 259, "Edificacoe": "Residência" }, "geometry": { "type": "Point", "coordinates": [ 364996.925244871468749, 6874419.673662987537682 ] } },
{ "type": "Feature", "properties": { "id": 260, "Edificacoe": "Residência" }, "geometry": { "type": "Point", "coordinates": [ 364993.332751562411431, 6874439.200602425262332 ] } },
{ "type": "Feature", "properties": { "id": 261, "Edificacoe": "Residência" }, "geometry": { "type": "Point", "coordinates": [ 364990.899127062759362, 6874432.189446128904819 ] } },
{ "type": "Feature", "properties": { "id": 262, "Edificacoe": "Residência" }, "geometry": { "type": "Point", "coordinates": [ 364977.977739838359412, 6874439.895923711359501 ] } },
{ "type": "Feature", "properties": { "id": 263, "Edificacoe": "Residência" }, "geometry": { "type": "Point", "coordinates": [ 364982.960875718621537, 6874443.546360461041331 ] } },
{ "type": "Feature", "properties": { "id": 264, "Edificacoe": "Residência" }, "geometry": { "type": "Point", "coordinates": [ 365032.966064842650667, 6874363.642356054857373 ] } },
{ "type": "Feature", "properties": { "id": 265, "Edificacoe": "Residência" }, "geometry": { "type": "Point", "coordinates": [ 365015.235372059396468, 6874359.238654579035938 ] } },
{ "type": "Feature", "properties": { "id": 266, "Edificacoe": "Residência" }, "geometry": { "type": "Point", "coordinates": [ 365024.853983177163173, 6874350.257421306334436 ] } },
{ "type": "Feature", "properties": { "id": 267, "Edificacoe": "Residência" }, "geometry": { "type": "Point", "coordinates": [ 365045.308017662493512, 6874336.640712795779109 ] } },
{ "type": "Feature", "properties": { "id": 268, "Edificacoe": "Residência" }, "geometry": { "type": "Point", "coordinates": [ 365063.618144850479439, 6874330.846368748694658 ] } },
{ "type": "Feature", "properties": { "id": 269, "Edificacoe": "Residência" }, "geometry": { "type": "Point", "coordinates": [ 365064.487296457518823, 6874341.855622437782586 ] } },
{ "type": "Feature", "properties": { "id": 270, "Edificacoe": "Residência" }, "geometry": { "type": "Point", "coordinates": [ 365076.597475515387487, 6874329.919273701496422 ] } },
{ "type": "Feature", "properties": { "id": 271, "Edificacoe": "Residência" }, "geometry": { "type": "Point", "coordinates": [ 365179.041478263272438, 6874532.431598138995469 ] } },
{ "type": "Feature", "properties": { "id": 272, "Edificacoe": "Residência" }, "geometry": { "type": "Point", "coordinates": [ 365083.956292454735376, 6874692.239606951363385 ] } },
{ "type": "Feature", "properties": { "id": 273, "Edificacoe": "Residência" }, "geometry": { "type": "Point", "coordinates": [ 365095.776754310238175, 6874709.854412853717804 ] } },
{ "type": "Feature", "properties": { "id": 274, "Edificacoe": "Residência" }, "geometry": { "type": "Point", "coordinates": [ 365115.709297831344884, 6874742.302739514969289 ] } },
{ "type": "Feature", "properties": { "id": 275, "Edificacoe": "Residência" }, "geometry": { "type": "Point", "coordinates": [ 365241.62039396900218, 6874697.976007556542754 ] } },
{ "type": "Feature", "properties": { "id": 276, "Edificacoe": "Residência" }, "geometry": { "type": "Point", "coordinates": [ 365253.209082062647212, 6874680.592975416220725 ] } },
{ "type": "Feature", "properties": { "id": 277, "Edificacoe": "Residência" }, "geometry": { "type": "Point", "coordinates": [ 365275.69113696430577, 6874683.837808081880212 ] } },
{ "type": "Feature", "properties": { "id": 278, "Edificacoe": "Residência" }, "geometry": { "type": "Point", "coordinates": [ 365288.206920105440076, 6874678.50701155886054 ] } },
{ "type": "Feature", "properties": { "id": 279, "Edificacoe": "Residência" }, "geometry": { "type": "Point", "coordinates": [ 365292.726508461986668, 6874665.527680893428624 ] } },
{ "type": "Feature", "properties": { "id": 280, "Edificacoe": "Residência" }, "geometry": { "type": "Point", "coordinates": [ 365285.425634962972254, 6874643.856834159232676 ] } },
{ "type": "Feature", "properties": { "id": 281, "Edificacoe": "Residência" }, "geometry": { "type": "Point", "coordinates": [ 365291.480724491819274, 6874683.750892920419574 ] } },
{ "type": "Feature", "properties": { "id": 282, "Edificacoe": "Residência" }, "geometry": { "type": "Point", "coordinates": [ 365299.650749597814865, 6874625.952311052940786 ] } },
{ "type": "Feature", "properties": { "id": 283, "Edificacoe": "Residência" }, "geometry": { "type": "Point", "coordinates": [ 365310.080568882112857, 6874615.986039292067289 ] } },
{ "type": "Feature", "properties": { "id": 284, "Edificacoe": "Residência" }, "geometry": { "type": "Point", "coordinates": [ 365318.772084952332079, 6874615.7542655300349 ] } },
{ "type": "Feature", "properties": { "id": 285, "Edificacoe": "Residência" }, "geometry": { "type": "Point", "coordinates": [ 365327.115940379793756, 6874619.346758839674294 ] } },
{ "type": "Feature", "properties": { "id": 286, "Edificacoe": "Residência" }, "geometry": { "type": "Point", "coordinates": [ 365330.708433688851073, 6874605.672106889076531 ] } },
{ "type": "Feature", "properties": { "id": 287, "Edificacoe": "Residência" }, "geometry": { "type": "Point", "coordinates": [ 365342.760669306211639, 6874594.894626962020993 ] } },
{ "type": "Feature", "properties": { "id": 288, "Edificacoe": "Residência" }, "geometry": { "type": "Point", "coordinates": [ 365350.061542805226054, 6874587.941414106637239 ] } },
{ "type": "Feature", "properties": { "id": 289, "Edificacoe": "Residência" }, "geometry": { "type": "Point", "coordinates": [ 365349.366221519594546, 6874575.425630965270102 ] } },
{ "type": "Feature", "properties": { "id": 290, "Edificacoe": "Residência" }, "geometry": { "type": "Point", "coordinates": [ 365348.786787114921026, 6874563.605169110000134 ] } },
{ "type": "Feature", "properties": { "id": 291, "Edificacoe": "Residência" }, "geometry": { "type": "Point", "coordinates": [ 365343.398047151451465, 6874557.521107859909534 ] } },
{ "type": "Feature", "properties": { "id": 292, "Edificacoe": "Residência" }, "geometry": { "type": "Point", "coordinates": [ 365349.250334638694767, 6874544.715607515536249 ] } },
{ "type": "Feature", "properties": { "id": 293, "Edificacoe": "Residência" }, "geometry": { "type": "Point", "coordinates": [ 365362.924986589176115, 6874540.022188837639987 ] } },
{ "type": "Feature", "properties": { "id": 294, "Edificacoe": "Residência" }, "geometry": { "type": "Point", "coordinates": [ 365370.341746969148517, 6874530.867125243879855 ] } },
{ "type": "Feature", "properties": { "id": 295, "Edificacoe": "Residência" }, "geometry": { "type": "Point", "coordinates": [ 365375.96226069459226, 6874537.298847136087716 ] } },
{ "type": "Feature", "properties": { "id": 296, "Edificacoe": "Residência" }, "geometry": { "type": "Point", "coordinates": [ 365392.302310906641651, 6874532.953089101240039 ] } },
{ "type": "Feature", "properties": { "id": 297, "Edificacoe": "Residência" }, "geometry": { "type": "Point", "coordinates": [ 365388.651874157134444, 6874525.826045922935009 ] } },
{ "type": "Feature", "properties": { "id": 298, "Edificacoe": "Residência" }, "geometry": { "type": "Point", "coordinates": [ 365389.984573287889361, 6874545.816532884724438 ] } },
{ "type": "Feature", "properties": { "id": 299, "Edificacoe": "Residência" }, "geometry": { "type": "Point", "coordinates": [ 365409.859173368604388, 6874524.203629589639604 ] } },
{ "type": "Feature", "properties": { "id": 300, "Edificacoe": "Residência" }, "geometry": { "type": "Point", "coordinates": [ 365407.309661987994332, 6874538.689489707350731 ] } },
{ "type": "Feature", "properties": { "id": 301, "Edificacoe": "Residência" }, "geometry": { "type": "Point", "coordinates": [ 365411.887193784990814, 6874535.444657040759921 ] } },
{ "type": "Feature", "properties": { "id": 302, "Edificacoe": "Residência" }, "geometry": { "type": "Point", "coordinates": [ 365431.645906984515022, 6874532.083937494084239 ] } },
{ "type": "Feature", "properties": { "id": 303, "Edificacoe": "Residência" }, "geometry": { "type": "Point", "coordinates": [ 365443.524312280525919, 6874542.339926457032561 ] } },
{ "type": "Feature", "properties": { "id": 304, "Edificacoe": "Residência" }, "geometry": { "type": "Point", "coordinates": [ 365449.318656327377539, 6874526.811084411107004 ] } },
{ "type": "Feature", "properties": { "id": 305, "Edificacoe": "Residência" }, "geometry": { "type": "Point", "coordinates": [ 365459.80641905212542, 6874523.508308304473758 ] } },
{ "type": "Feature", "properties": { "id": 306, "Edificacoe": "Residência" }, "geometry": { "type": "Point", "coordinates": [ 365461.312948504288215, 6874543.324964945204556 ] } },
{ "type": "Feature", "properties": { "id": 307, "Edificacoe": "Residência" }, "geometry": { "type": "Point", "coordinates": [ 365351.220411614340264, 6874649.94089540746063 ] } },
{ "type": "Feature", "properties": { "id": 308, "Edificacoe": "Residência" }, "geometry": { "type": "Point", "coordinates": [ 365338.356967830390204, 6874669.989325808361173 ] } },
{ "type": "Feature", "properties": { "id": 309, "Edificacoe": "Residência" }, "geometry": { "type": "Point", "coordinates": [ 365359.796040803717915, 6874684.591072807088494 ] } },
{ "type": "Feature", "properties": { "id": 310, "Edificacoe": "Residência" }, "geometry": { "type": "Point", "coordinates": [ 365348.439126471930649, 6874690.095699651166797 ] } },
{ "type": "Feature", "properties": { "id": 311, "Edificacoe": "Residência" }, "geometry": { "type": "Point", "coordinates": [ 365342.528895544121042, 6874675.667782974429429 ] } },
{ "type": "Feature", "properties": { "id": 312, "Edificacoe": "Residência" }, "geometry": { "type": "Point", "coordinates": [ 362973.27955823513912, 6874177.759799027815461 ] } },
{ "type": "Feature", "properties": { "id": 313, "Edificacoe": "Residência" }, "geometry": { "type": "Point", "coordinates": [ 362888.218587627576198, 6874217.508999188430607 ] } },
{ "type": "Feature", "properties": { "id": 314, "Edificacoe": "Residência" }, "geometry": { "type": "Point", "coordinates": [ 362890.014834282104857, 6874377.954385844990611 ] } },
{ "type": "Feature", "properties": { "id": 315, "Edificacoe": "Residência" }, "geometry": { "type": "Point", "coordinates": [ 362879.932675640564412, 6874397.771042484790087 ] } },
{ "type": "Feature", "properties": { "id": 316, "Edificacoe": "Residência" }, "geometry": { "type": "Point", "coordinates": [ 362654.300918457040098, 6874641.249379332177341 ] } },
{ "type": "Feature", "properties": { "id": 317, "Edificacoe": "Residência" }, "geometry": { "type": "Point", "coordinates": [ 362110.038182138057891, 6874989.837117192335427 ] } },
{ "type": "Feature", "properties": { "id": 318, "Edificacoe": "Residência" }, "geometry": { "type": "Point", "coordinates": [ 361669.088600174174644, 6875163.088004189543426 ] } }
]
}
