{
  "type": "FeatureCollection",
  "name": "Estacao_Embrapa_Trigo",
  "crs": {
    "type": "name",
    "properties": {
      "name": "urn:ogc:def:crs:EPSG::31982"
    }
  },
  "features": [
    {
      "type": "Feature",
      "properties": {
        "id": 2,
        "estacao_cod": "83914",
        "nome_estacao": "Estação Meteorológica Embrapa Trigo",
        "rede": "Embrapa Trigo — Laboratório de Agrometeorologia",
        "tipo_dado": "Dados meteorológicos diários",
        "municipio": "Passo Fundo / RS",
        "localizacao": "BR-285, Km 294, Passo Fundo/RS",
        "altitude": 684,
        "lat": -28.262778,
        "lon": -52.406667,
        "utm_x": 362022.22,
        "utm_y": 6872885.69
      },
      "geometry": {
        "type": "Point",
        "coordinates": [
          362022.215387352,
          6872885.68730869
        ]
      }
    }
  ]
}
