{
"type": "FeatureCollection",
"name": "Mapeamento Serviço Geológico do Brasil (SGB, 2025)",
"crs": { "type": "name", "properties": { "name": "urn:ogc:def:crs:EPSG::31982" } },
"features": [
{ "type": "Feature", "properties": { "fid": 117, "LOCAL": "Ruas A, B, G e das Flores, Bairros Bela Vista/Petrópolis", "NUM_SETOR": "RS_PASSOFU_SR_001_SGB", "SITUACAO_01": "Ocorrido", "DESCRICAO": "Área urbana localizada na planície aluvionar do Rio Passo Fundo, sujeita a eventos recorrentes de inundação. Evento mais recente e de maior magnitude ocorreu em maio de 2024, com lâmina d'água atingindo 20 cm no interior de casa situada na Rua G (Figura 1 e 2). Já onde as moradias estão mais próximas da margem do rio, a lâmina d´água atingiu mais de 50 cm na Rua C (Figuras 3 e 4) e 1 metro, na Rua Santa Fé (Figuras 5 e 6). A área é ocupada por residências predominantemente em madeira e padrão construtivo misto (madeira/alvenaria), com alta vulnerabilidade ao processo. A infraestrutura conta com vias não pavimentadas e sistema de drenagem pluvial insuficiente. As águas servidas são majoritariamente lançadas diretamente no curso d´água.", "NUM_EDIF": 47, "NUM_PESS": 188, "GRAU_VULNE": "Alto", "GRAU_RISCO": "Alto" }, "geometry": { "type": "Polygon", "coordinates": [ [ [ 364854.355137250735424, 6873848.918323881924152 ], [ 364866.400396912009455, 6873863.166401526890695 ], [ 364880.68050554022193, 6873882.954527199268341 ], [ 364840.601211365836207, 6873923.631510249339044 ], [ 364839.900350480980705, 6873930.325252672657371 ], [ 364851.90675144008128, 6873945.629003446549177 ], [ 364791.928128677944187, 6874001.557938385754824 ], [ 364758.021972288785037, 6874030.624027939513326 ], [ 364733.376334417611361, 6874055.562879879027605 ], [ 364705.991746294894256, 6874087.877640606835485 ], [ 364669.403150528494734, 6874133.027931060642004 ], [ 364687.14059150184039, 6874149.036481950432062 ], [ 364713.478671854594722, 6874168.317515233531594 ], [ 364760.448004588484764, 6874204.069765686057508 ], [ 364733.08359324419871, 6874238.875926580280066 ], [ 364663.095164135796949, 6874198.347444820217788 ], [ 364642.429268429172225, 6874165.672407469712198 ], [ 364570.040287905838341, 6874104.02317628543824 ], [ 364588.997442498570308, 6874057.973227682523429 ], [ 364595.993627654097509, 6874045.0904735121876 ], [ 364601.925371636170894, 6874048.944384317845106 ], [ 364668.979162763105705, 6873937.879711508750916 ], [ 364700.367281790357083, 6873884.109817411750555 ], [ 364709.894044700311497, 6873868.793323365040123 ], [ 364743.147467422531918, 6873883.281161489896476 ], [ 364854.355137250735424, 6873848.918323881924152 ] ] ] } },
{ "type": "Feature", "properties": { "fid": 118, "LOCAL": "Rua da Floresta, Bairro Petrópolis ", "NUM_SETOR": "RS_PASSOFU_SR_002_SGB", "SITUACAO_01": "Ocorrido", "DESCRICAO": "Ocupação residencial em área urbana localizada na planície aluvionar do Rio Passo Fundo, sujeita a eventos recorrentes de inundação, sendo o de maior magnitude ocorrido em abril/maio de 2024, atingindo o nível do piso das casas (Figuras 1 e 2). Na porção mais elevada do setor foram construídas duas residências junto a talude de corte, com mais de 2 metros de altura, na base da encosta recoberta por aterro (Figuras 3, 4 e 5) A área é ocupada por residências em madeira e em padrão construtivo misto (madeira/alvenaria), com alta vulnerabilidade aos processos. A infraestrutura é precária, conta com via não pavimentada e não há sistemas de esgotamento sanitário e de drenagem pluvial (Figuras 4 e 6).", "NUM_EDIF": 2, "NUM_PESS": 8, "GRAU_VULNE": "Médio", "GRAU_RISCO": "Alto" }, "geometry": { "type": "Polygon", "coordinates": [ [ [ 364617.195288286544383, 6874185.026909056119621 ], [ 364648.064446548582055, 6874214.594216955825686 ], [ 364636.89433724648552, 6874231.232200565747917 ], [ 364629.58609091246035, 6874240.10556716658175 ], [ 364619.478720414510462, 6874233.216092196293175 ], [ 364619.965776751050726, 6874221.317264704033732 ], [ 364597.90389344462892, 6874199.977320393547416 ], [ 364570.550897207576782, 6874162.273570923134685 ], [ 364556.804862162854988, 6874131.212524018250406 ], [ 364572.097066321643069, 6874118.293965453281999 ], [ 364577.339760057511739, 6874125.666985140182078 ], [ 364590.434204364079051, 6874153.423101371154189 ], [ 364602.25556652690284, 6874172.108925266191363 ], [ 364617.195288286544383, 6874185.026909056119621 ] ] ] } },
{ "type": "Feature", "properties": { "fid": 119, "LOCAL": "Travessa Cipreste, Bairro Petrópolis ", "NUM_SETOR": "RS_PASSOFU_SR_003_SGB", "SITUACAO_01": "Ocorrido", "DESCRICAO": "Ocupação residencial em área urbana localizada na planície aluvionar do Rio Passo Fundo, sujeita a eventos recorrentes de inundação. Eventos de maior magnitude ocorreram em setembro de 2023 e maio de 2024 (Figuras 1 e 2). A área é ocupada por residências em madeira e padrão construtivo misto (madeira/alvenaria), com média a alta vulnerabilidade ao processo. A infraestrutura conta com vias não pavimentadas e com drenagem pluvial insuficiente.(Figura 3).", "NUM_EDIF": 5, "NUM_PESS": 20, "GRAU_VULNE": "Médio", "GRAU_RISCO": "Alto" }, "geometry": { "type": "Polygon", "coordinates": [ [ [ 364399.640959992073476, 6873883.152846220880747 ], [ 364391.095575786544941, 6873897.444106876850128 ], [ 364396.237759887939319, 6873902.236032029613853 ], [ 364388.831105900462717, 6873919.56953689455986 ], [ 364406.513691802858375, 6873932.44304883480072 ], [ 364398.078450316097587, 6873946.55965362675488 ], [ 364422.532880834362004, 6873963.121117213740945 ], [ 364424.585418729111552, 6873959.547339960932732 ], [ 364479.709796753595583, 6873991.229732632637024 ], [ 364466.090581561787985, 6873981.881324635818601 ], [ 364479.737393661984242, 6873991.212486814707518 ], [ 364498.162274212867487, 6873968.369404797442257 ], [ 364447.122186421242077, 6873923.832518419250846 ], [ 364436.343547891126946, 6873913.485759342089295 ], [ 364426.888599570142105, 6873904.668725381605327 ], [ 364413.924439689260907, 6873894.864965468645096 ], [ 364399.640959992073476, 6873883.152846220880747 ] ] ] } },
{ "type": "Feature", "properties": { "fid": 120, "LOCAL": "Rua Lobo da Costa, Bairro São Luiz", "NUM_SETOR": "RS_PASSOFU_SR_004_SGB", "SITUACAO_01": "Ocorrido", "DESCRICAO": "Ocupação residencial em área urbana localizada na planície aluvionar do Rio Passo Fundo, sujeita a eventos recorrentes de inundação (Figuras 1 e 2). Eventos de maior magnitude ocorreram em setembro de 2023 e em fevereiro e maio de 2024, atingindo, neste último, cerca de 1 metro no interior das construções. A área é ocupada por residências em madeira e padrão construtivo misto (madeira/alvenaria), com alta vulnerabilidade ao processo (Figuras 3, 4, 5 e 6). A infraestrutura conta com vias não pavimentadas e sistema de drenagem pluvial insuficiente. As águas servidas são lançadas diretamente no curso d´água (Figura 1).", "NUM_EDIF": 15, "NUM_PESS": 60, "GRAU_VULNE": "Alto", "GRAU_RISCO": "Muito alto" }, "geometry": { "type": "Polygon", "coordinates": [ [ [ 364373.713951632729732, 6873634.759362423792481 ], [ 364370.586872158339247, 6873633.124897914938629 ], [ 364363.570735254674219, 6873627.715614810585976 ], [ 364372.745037079672329, 6873595.668147753924131 ], [ 364377.356541998218745, 6873563.746176701039076 ], [ 364399.661964360508136, 6873538.776568836532533 ], [ 364411.359521101927385, 6873547.436778449453413 ], [ 364419.090949537116103, 6873559.071500742807984 ], [ 364446.533688666706439, 6873621.380243359133601 ], [ 364437.952013684436679, 6873629.098261921666563 ], [ 364414.572943640756421, 6873610.356982078403234 ], [ 364406.49042730499059, 6873601.915714306756854 ], [ 364394.10998201649636, 6873611.721949564293027 ], [ 364373.713951632729732, 6873634.759362423792481 ] ] ] } },
{ "type": "Feature", "properties": { "fid": 121, "LOCAL": "Rua Judite Franciosi e Rua Francisco Alves Xavier, Bairro Entrerios ", "NUM_SETOR": "RS_PASSOFU_SR_005_SGB", "SITUACAO_01": "Ocorrido", "DESCRICAO": "Ocupação residencial em área urbana localizada na planície aluvionar do Rio Passo Fundo, na porção interna de um meandro, sujeita a eventos recorrentes de inundação (Figuras 1 e 2). Eventos de maior magnitude ocorreram em setembro de 2023 e em maio de 2024, quando foi necessário o uso de barco para remoção dos moradores. A área é ocupada por residências em alvenaria e padrão construtivo misto (madeira/alvenaria), com média vulnerabilidade ao processo (Figuras 3, 4, 5 e 6). A infraestrutura conta com vias pavimentadas e sistema de drenagem pluvial insuficiente (Figura 6).", "NUM_EDIF": 23, "NUM_PESS": 92, "GRAU_VULNE": "Médio", "GRAU_RISCO": "Alto" }, "geometry": { "type": "Polygon", "coordinates": [ [ [ 364361.853617451735772, 6873845.310456078499556 ], [ 364335.662248022097629, 6873835.752381598576903 ], [ 364292.540361433115322, 6873807.926471516489983 ], [ 364272.02374932426028, 6873842.57068869099021 ], [ 364290.094065353041515, 6873859.060286028310657 ], [ 364280.236867502448149, 6873884.041443847119808 ], [ 364272.125595521763898, 6873899.731625895947218 ], [ 364264.028933701105416, 6873914.142273848876357 ], [ 364251.423089175019413, 6873926.510714938864112 ], [ 364186.15935378120048, 6873820.473606815561652 ], [ 364176.368867422104813, 6873834.367159643210471 ], [ 364168.435739166918211, 6873850.983541184104979 ], [ 364197.752231425489299, 6873902.507995875552297 ], [ 364238.875958594609983, 6873996.541369220241904 ], [ 364311.425395398517139, 6873974.50572594627738 ], [ 364347.521381935977843, 6873951.96554402820766 ], [ 364357.797678569564596, 6873880.859489280730486 ], [ 364361.853617451735772, 6873845.310456078499556 ] ] ] } },
{ "type": "Feature", "properties": { "fid": 122, "LOCAL": "Rua Rodrigues Alves, Bairro Entrerios", "NUM_SETOR": "RS_PASSOFU_SR_006_SGB", "SITUACAO_01": "Ocorrido", "DESCRICAO": "Ocupação residencial em área urbana localizada na planície aluvionar do Rio Passo Fundo, sujeita a eventos recorrentes de inundação (Figura 1). Eventos de maior magnitude ocorreram em setembro e novembro de 2023, quando os moradores foram resgatados pela Defesa Civil com o uso de barco.  A dragagem do canal fluvial e a construção de uma valeta para melhorar o escoamento na região, realizadas em novembro de 2023 evitaram o atingimento das residências em maio de 2024 (Figuras 2 e 3). A área é ocupada por residências em madeira, alvenaria e padrão construtivo misto (madeira/alvenaria), com alta vulnerabilidade ao processo (Figuras 1, 2, 4, 5 e 6). A infraestrutura conta com vias pavimentadas e sistema de drenagem pluvial insuficiente (Figura 6).", "NUM_EDIF": 88, "NUM_PESS": 352, "GRAU_VULNE": "Alto", "GRAU_RISCO": "Alto" }, "geometry": { "type": "Polygon", "coordinates": [ [ [ 363961.84390162845375, 6873913.656566083431244 ], [ 363996.335214303224348, 6873933.191430667415261 ], [ 364039.258862081740517, 6873967.045323518104851 ], [ 364071.049227516166866, 6874011.623107481747866 ], [ 363976.609995923819952, 6874076.518723664805293 ], [ 364001.230016264074948, 6874111.414268674328923 ], [ 364047.536578769737389, 6874134.399225099012256 ], [ 364102.689621241472196, 6874143.939950369298458 ], [ 364108.716848723648582, 6874031.424238263629377 ], [ 364156.386202135239728, 6873948.429749064147472 ], [ 364015.181915044784546, 6873846.926437707617879 ], [ 363957.062911150162108, 6873912.237865814939141 ], [ 363961.84390162845375, 6873913.656566083431244 ] ] ] } },
{ "type": "Feature", "properties": { "fid": 124, "LOCAL": "Ocupação Floresta", "NUM_SETOR": "RS_PASSOFU_SR_007_SGB", "SITUACAO_01": "Ocorrido", "DESCRICAO": "Ocupação residencial em área urbana localizada na planície aluvionar do Rio Passo Fundo, na parte interna de um meandro, sujeita a eventos recorrentes de inundação. Eventos mais recentes e de maior magnitude ocorreram em setembro e outubro de 2023, fevereiro e maio de 2024 e junho de 2025, sendo que este último na área mais próxima à entrada do setor, na Rua Diego Martin Ferreira da Silva (Fotos 1, 2 e 3). No final da rua F, os moradores executaram um aterro para proteção contra as cheias e construção de novas residências (Figura 4). Já no final da Rua D, onde em maio de 2024 o nível da água alcançou 1,30 metros, as casas utilizam palafitas como forma de proteção contra as cheias. As construções no setor são em madeira e padrão misto (madeira/alvenaria), com alta vulnerabilidade ao processo (Figuras 1, 2, 4, 5 e 6). A infraestrutura é precária e compreende vias não pavimentadas carentes de sistema de drenagem pluvial (Figuras 3 e 5).", "NUM_EDIF": 49, "NUM_PESS": 196, "GRAU_VULNE": "Alto", "GRAU_RISCO": "Muito alto" }, "geometry": { "type": "Polygon", "coordinates": [ [ [ 365432.629954653210007, 6874516.089544342830777 ], [ 365442.288007186143659, 6874533.382036928087473 ], [ 365454.637341803056188, 6874530.576315397396684 ], [ 365471.905635840259492, 6874528.480905990116298 ], [ 365475.00367725326214, 6874549.217473138123751 ], [ 365439.549319407902658, 6874551.270454607903957 ], [ 365422.213982134067919, 6874546.491843324154615 ], [ 365400.182808240002487, 6874553.278983676806092 ], [ 365386.936164388316683, 6874553.069755858741701 ], [ 365377.044305481307674, 6874549.089112157002091 ], [ 365361.464675848663319, 6874562.004304479807615 ], [ 365358.238471248012502, 6874597.315696300938725 ], [ 365342.608736846712418, 6874621.031069369055331 ], [ 365327.102353390771896, 6874633.865228669717908 ], [ 365303.338655371742789, 6874633.67750733718276 ], [ 365295.332416308985557, 6874649.62419394031167 ], [ 365300.964880149811506, 6874664.089117918163538 ], [ 365303.896434895112179, 6874686.705803086981177 ], [ 365282.310801363026258, 6874698.898180078715086 ], [ 365222.691818964027334, 6874716.877522462047637 ], [ 365203.286861706874333, 6874677.381709957495332 ], [ 365223.776496692211367, 6874646.848446084186435 ], [ 365220.217238965269644, 6874628.479457827284932 ], [ 365211.374887487851083, 6874590.412721735425293 ], [ 365199.683017586474307, 6874573.587883396074176 ], [ 365191.821590249484871, 6874551.242483666166663 ], [ 365171.016344375442713, 6874533.004954802803695 ], [ 365165.952697780216113, 6874468.470070403069258 ], [ 365190.445203368319198, 6874455.492680189199746 ], [ 365206.648124941450078, 6874489.797278694808483 ], [ 365216.827827838831581, 6874512.16898737102747 ], [ 365241.627028825227171, 6874548.780353984795511 ], [ 365252.217425163078588, 6874579.666387176141143 ], [ 365263.896412031783257, 6874604.018835668452084 ], [ 365269.681095284584444, 6874611.448638018220663 ], [ 365275.926504431525245, 6874622.974866542965174 ], [ 365287.757659942610189, 6874614.763046372681856 ], [ 365314.611312362831086, 6874598.048276414163411 ], [ 365334.955852365295868, 6874586.660014741122723 ], [ 365334.063999365607742, 6874569.466854901984334 ], [ 365345.771506228134967, 6874559.371626251377165 ], [ 365342.446290121646598, 6874552.297050198540092 ], [ 365351.150978409568779, 6874545.031603146344423 ], [ 365361.853468165965751, 6874534.106723008677363 ], [ 365360.746270391100552, 6874529.512023062445223 ], [ 365373.900795895024203, 6874519.596825548447669 ], [ 365392.94759640772827, 6874507.620990706607699 ], [ 365400.537909941165708, 6874515.562142428010702 ], [ 365409.830565944197588, 6874513.94917678553611 ], [ 365425.788196180365048, 6874506.029474347829819 ], [ 365432.629954653210007, 6874516.089544342830777 ] ] ] } },
{ "type": "Feature", "properties": { "fid": 125, "LOCAL": "Rua C ,Bairro Vista Alegre", "NUM_SETOR": "RS_PASSOFU_SR_008_SGB", "SITUACAO_01": "Ocorrido", "DESCRICAO": "Ocupação residencial em área urbana localizada na planície aluvionar do Rio Passo Fundo, na parte interna de um meandro, sujeita a eventos recorrentes de inundação (Figuras 1 e 3). Os eventos mais recentes e de maior magnitude ocorreram em setembro e outubro de 2023, maio de 2024 e maio/junho de 2025. Apesar do atingimento recorrente pelas cheias, são observadas novas construções. A área é ocupada por construções predominantemente em madeira, com alta vulnerabilidade ao processo (Figuras 1, 2, 3, 4, 5 e 6). A infraestrutura é precária e compreende vias não pavimentadas carentes de sistema de drenagem pluvial (Figuras 4 e 5).", "NUM_EDIF": 10, "NUM_PESS": 40, "GRAU_VULNE": "Alto", "GRAU_RISCO": "Muito alto" }, "geometry": { "type": "Polygon", "coordinates": [ [ [ 364993.355110288306605, 6874371.262825405225158 ], [ 365003.177325073629618, 6874365.333398815244436 ], [ 365015.068402386561502, 6874385.013364546000957 ], [ 364993.915433363930788, 6874391.169326104223728 ], [ 364987.485966862121131, 6874375.460399737581611 ], [ 364965.249432130134664, 6874380.563052423298359 ], [ 364951.346624434634577, 6874385.088294811546803 ], [ 364935.744917218806222, 6874397.653463463298976 ], [ 364926.107458665035665, 6874390.842299008741975 ], [ 364926.370395262027159, 6874363.573654980398715 ], [ 364934.454877852578647, 6874347.960749888792634 ], [ 364946.310554377967492, 6874338.176433711312711 ], [ 364955.967965398624074, 6874352.270103884860873 ], [ 364967.072662950609811, 6874358.082157719880342 ], [ 364969.890586939873174, 6874365.43686006963253 ], [ 364985.02272635063855, 6874356.864856451749802 ], [ 364990.383780458185356, 6874368.691252779215574 ], [ 364993.355110288306605, 6874371.262825405225158 ] ] ] } },
{ "type": "Feature", "properties": { "fid": 126, "LOCAL": "Bairro São Luiz Gonzaga", "NUM_SETOR": "RS_PASSOFU_SR_009_SGB", "SITUACAO_01": "Ocorrido", "DESCRICAO": "Ocupação residencial em área urbana localizada na planície aluvionar do Arroio Santo Antônio, entre a confluência com o Rio Passo Fundo e o aterro da via férrea (Figura 1). O setor é atingido de forma recorrente por inundação, sendo as mais recentes em setembro e outubro de 2023. Em setembro de 2023, os moradores foram resgatados com barco devido à rápida subida do nível da água que atingiu cerca de 0,5 metro no interior das casas (Figura 2). Após a dragagem e limpeza do canal do rio em novembro de 2023, não houve novo atingimento. No talude do aterro da via férrea ocorreu um deslizamento em outubro de 2023, atingindo o fundo de algumas casas localizadas na Rua Epitácio Pessoa. Como medida de estabilização do talude, foi executado o enrocamento com pedras lançadas sobre o aterro (Figura 5). O setor é ocupado por construções predominantemente em alvenaria ou padrão misto (madeira/alvenaria), com média vulnerabilidade ao processo (Figuras 3, 4, 5 e 6). A infraestrutura compreende vias pavimentadas com sistema de drenagem pluvial insuficiente (Figuras 1 e 3).", "NUM_EDIF": 19, "NUM_PESS": 76, "GRAU_VULNE": "Alto", "GRAU_RISCO": "Alto" }, "geometry": { "type": "Polygon", "coordinates": [ [ [ 364111.929719499778003, 6873415.338937683030963 ], [ 364131.090834310045466, 6873408.95932930521667 ], [ 364160.578387777146418, 6873448.043524632230401 ], [ 364136.824067346402444, 6873466.385227035731077 ], [ 364158.336094322847202, 6873497.020996073260903 ], [ 364172.306743873399682, 6873532.698654391802847 ], [ 364178.965203498664778, 6873555.049255583435297 ], [ 364178.965203498664778, 6873555.049255583435297 ], [ 364178.965203498664778, 6873555.049255583435297 ], [ 364129.513451704289764, 6873627.556045704521239 ], [ 364112.30696830234956, 6873654.191706095822155 ], [ 364095.295491163851693, 6873680.584467793814838 ], [ 364081.117525192210451, 6873737.188022837042809 ], [ 364064.14698554133065, 6873759.990371339023113 ], [ 364040.968210532097146, 6873774.406284993514419 ], [ 364027.534187046461739, 6873699.228213284164667 ], [ 364057.522434983286075, 6873694.633395364508033 ], [ 364055.523464421508834, 6873678.276120897382498 ], [ 364068.69829784007743, 6873673.298768316395581 ], [ 364062.377310959273018, 6873652.523501795716584 ], [ 364057.063101133913733, 6873631.949695512652397 ], [ 364055.272955457679927, 6873597.361081372015178 ], [ 364051.557337806152645, 6873576.710611013695598 ], [ 364055.818698307964951, 6873539.586016973480582 ], [ 364108.818803767557256, 6873530.477753058075905 ], [ 364104.62982368352823, 6873500.480620809830725 ], [ 364111.310062386968639, 6873487.186938782222569 ], [ 364114.11409584217472, 6873484.525908552110195 ], [ 364111.929719499778003, 6873415.338937683030963 ] ] ] } },
{ "type": "Feature", "properties": { "fid": 127, "LOCAL": "Rua Emílio tagliari ", "NUM_SETOR": "RS_PASSOFU_SR_010_SGB", "SITUACAO_01": "Ocorrido", "DESCRICAO": "Ocupação residencial em área urbana localizada na planície aluvionar do Arroio Santo Antônio, a montante do aterro da via férrea (Figura 1). O setor é atingido de forma recorrente por inundações, sendo as mais recentes em setembro e outubro de 2023, e em maio de 2024, quando o nível d´água atingiu altura superior a 0,5 metros nas casas situadas nas margens do arroio (Figuras 2, 3, 4 e 5). O setor é ocupado por construções em alvenaria e madeira, com média a alta vulnerabilidade ao processo. A infraestrutura compreende vias pavimentadas com sistema de drenagem pluvial insuficiente.", "NUM_EDIF": 16, "NUM_PESS": 64, "GRAU_VULNE": "Médio", "GRAU_RISCO": "Alto" }, "geometry": { "type": "Polygon", "coordinates": [ [ [ 364146.904932413774077, 6873340.649485566653311 ], [ 364142.168358442024328, 6873342.563114484772086 ], [ 364116.793006031424738, 6873347.771013013087213 ], [ 364111.246527102193795, 6873348.807188890874386 ], [ 364106.776316577044781, 6873327.456942478194833 ], [ 364104.613216192345135, 6873319.445025580003858 ], [ 364107.633711439557374, 6873306.283451739698648 ], [ 364103.339992047986016, 6873287.423971949145198 ], [ 364100.67613774316851, 6873281.374167890287936 ], [ 364095.608143337885849, 6873282.396521452814341 ], [ 364094.880205653258599, 6873274.36245059594512 ], [ 364090.753983652743045, 6873264.746053155511618 ], [ 364089.10316171112936, 6873253.768932552076876 ], [ 364112.119626428175252, 6873254.649857306852937 ], [ 364113.728355136583559, 6873275.27280711568892 ], [ 364121.725677753216587, 6873275.017104499042034 ], [ 364135.489637425867841, 6873272.396542705595493 ], [ 364143.775990884751081, 6873301.219053480774164 ], [ 364147.240119853289798, 6873311.367115030065179 ], [ 364149.094951497740112, 6873328.404443482868373 ], [ 364149.389608788653277, 6873338.478567226789892 ], [ 364148.184542367816903, 6873341.109786624088883 ], [ 364148.184542367816903, 6873341.109786624088883 ], [ 364146.904932413774077, 6873340.649485566653311 ] ] ] } },
{ "type": "Feature", "properties": { "fid": 129, "LOCAL": "Rua Decio Martins dá Costa,  Bairro Santa Rosa Maria ", "NUM_SETOR": "RS_PASSOFU_SR_012_SGB", "SITUACAO_01": "Ocorrido", "DESCRICAO": "Ocupação residencial em área urbana, na planície aluvionar do Arroio Santo Antônio, com moradias ao longo das suas margens (Figuras 1, 2, 3 e 4). O setor é atingido de forma recorrente por inundações, sendo as mais recentes em setembro e outubro de 2023, quando o nível d´água atingiu entre 0,3 e 0,5 metros e os moradores foram resgatados pela Defesa Civil (Figuras 5). O setor é ocupado por construções predominantemente em alvenaria, com média a alta vulnerabilidade ao processo. A infraestrutura compreende vias pavimentadas com sistema de drenagem pluvial insuficiente (Figura 6).", "NUM_EDIF": 79, "NUM_PESS": 316, "GRAU_VULNE": "Médio", "GRAU_RISCO": "Alto" }, "geometry": { "type": "Polygon", "coordinates": [ [ [ 364229.819160450540949, 6873044.889944858849049 ], [ 364234.391635734122247, 6873055.61708714812994 ], [ 364243.296310038655065, 6873069.410516064614058 ], [ 364246.863780673593283, 6873076.496496826410294 ], [ 364253.487875802558847, 6873083.883296258747578 ], [ 364264.633960705832578, 6873086.935199078172445 ], [ 364269.717599938972853, 6873095.234863001853228 ], [ 364280.746657577867154, 6873108.520845711231232 ], [ 364305.245728304376826, 6873137.779240561649203 ], [ 364321.006545742740855, 6873128.388649091124535 ], [ 364333.684877415478695, 6873120.95671484619379 ], [ 364344.839436277165078, 6873112.975638950243592 ], [ 364354.918154015555046, 6873106.444460678845644 ], [ 364353.78997403284302, 6873102.17787969391793 ], [ 364340.164303619647399, 6873089.526924131438136 ], [ 364336.583099682116881, 6873083.63716677390039 ], [ 364339.086270351544954, 6873080.874300828203559 ], [ 364400.283656842831988, 6873033.996703626587987 ], [ 364431.77036050055176, 6873024.242871403694153 ], [ 364438.513710570172407, 6873010.894213851541281 ], [ 364443.36660167388618, 6872998.188596302643418 ], [ 364453.215211245347746, 6873002.34431038890034 ], [ 364471.663152176188305, 6873008.403830272145569 ], [ 364488.816341159516014, 6873004.168799739331007 ], [ 364535.135534249129705, 6873001.861854955554008 ], [ 364550.285339140449651, 6872994.413605520501733 ], [ 364568.200748400529847, 6872992.136767267249525 ], [ 364622.459308016113937, 6872995.414430513978004 ], [ 364640.022484004963189, 6872996.50096373166889 ], [ 364646.725659061863553, 6872986.652166905812919 ], [ 364648.077915019588545, 6872978.160228846594691 ], [ 364498.296608930919319, 6872905.733377928845584 ], [ 364469.544776223134249, 6872960.304143035784364 ], [ 364438.068826555856504, 6872947.670956371352077 ], [ 364439.61002353951335, 6872943.257640803232789 ], [ 364430.353716109879315, 6872943.063277102075517 ], [ 364411.513474657316692, 6872942.771036354824901 ], [ 364388.433704906608909, 6872964.661359846591949 ], [ 364365.472706099040806, 6872986.199081939645112 ], [ 364346.53852088120766, 6873005.52302479930222 ], [ 364320.458457091939636, 6873032.209192092530429 ], [ 364310.112012759840582, 6873033.852184817194939 ], [ 364284.545324777252972, 6873036.218375710770488 ], [ 364258.097706790547818, 6873041.000366799533367 ], [ 364229.819160450540949, 6873044.889944858849049 ] ] ] } },
{ "type": "Feature", "properties": { "fid": 130, "LOCAL": "Beco da rua João Petraco, Bairro Petrópolis", "NUM_SETOR": "RS_PASSOFU_SR_013_SGB", "SITUACAO_01": "Potencial", "DESCRICAO": "Ocupação residencial em antiga cava de pedreira de basalto, com potencial para queda de blocos (Figuras 1 e 2). Residências construídas próximo ao talude de corte subvertical. Relato de processo administrativo na prefeitura, de 2023, com solicitação de moradores para remoção frente a risco iminente. As construções são em madeira e em padrão misto com vulnerabilidade alta ao processo de queda de blocos Figuras 3, 4 e 5). A infraestrutura conta com via pavimentada e com sistemas de drenagem pluvial insuficiente. ", "NUM_EDIF": 17, "NUM_PESS": 68, "GRAU_VULNE": "Alto", "GRAU_RISCO": "Alto" }, "geometry": { "type": "Polygon", "coordinates": [ [ [ 364327.327130188117735, 6874113.318366039544344 ], [ 364328.701754516689107, 6874124.81427077203989 ], [ 364330.946671681245789, 6874137.028774561360478 ], [ 364324.183081338298507, 6874141.345135036855936 ], [ 364314.16500215115957, 6874144.915642324835062 ], [ 364292.497532569512259, 6874152.037985160946846 ], [ 364259.362463073106483, 6874152.296963409520686 ], [ 364235.153444940922782, 6874149.156625214964151 ], [ 364236.478667885065079, 6874188.95618206448853 ], [ 364233.164214284159243, 6874193.453666493296623 ], [ 364215.500761916395277, 6874201.613779569044709 ], [ 364201.571025806944817, 6874212.509462059475482 ], [ 364187.190568082267419, 6874235.376232049427927 ], [ 364186.729815549799241, 6874242.740966564975679 ], [ 364187.064121881965548, 6874246.429793436080217 ], [ 364195.441489137650933, 6874260.131785245612264 ], [ 364200.404163923463784, 6874265.149130402132869 ], [ 364220.095967896748334, 6874261.241584656760097 ], [ 364233.877226846292615, 6874257.311565730720758 ], [ 364258.099268245161511, 6874235.336790144443512 ], [ 364262.397430742392316, 6874221.638042049482465 ], [ 364272.151734357525129, 6874208.214266875758767 ], [ 364285.392415910726413, 6874202.696399446576834 ], [ 364302.515004592190962, 6874197.931542256847024 ], [ 364315.258175454917364, 6874192.923766015097499 ], [ 364340.609694577462506, 6874170.020741267129779 ], [ 364360.505038817645982, 6874131.054893391206861 ], [ 364361.811445291503333, 6874103.442967249080539 ], [ 364327.327130188117735, 6874113.318366039544344 ] ] ] } },
{ "type": "Feature", "properties": { "fid": 131, "LOCAL": "Beco da Rua Manoel Portela", "NUM_SETOR": "RS_PASSOFU_SR_014_SGB", "SITUACAO_01": "Ocorrido", "DESCRICAO": "Ocupação residencial na porção superior de encosta, em um vale em forma de anfiteatro, na margem esquerda do Rio Passo Fundo (Figura 1). A área compreende um antigo aterro na área de domínio da via ferroviária onde, em novembro de 2023, correu um deslizamento que provocou a destruição total de três residências e parcial de uma (Figuras 2 e 3). A via de acesso ao local também foi parcialmente destruída pelo deslizamento, dificultando o acesso para algumas moradias situadas mais próximas a crista do talude (Figuras 4, 5 e 6). Apesar da cobertura parcial da encosta com lona para impedir à infiltração de água, observam-se evidências da atuação de erosão e solapamento de solo. As edificações são em alvenaria com alta vulnerabilidade ao processo. A infraestrutura conta com vias pavimentadas e sistemas de drenagem pluvial que foram comprometidos pelo deslizamento.", "NUM_EDIF": 38, "NUM_PESS": 152, "GRAU_VULNE": "Alto", "GRAU_RISCO": "Muito alto" }, "geometry": { "type": "Polygon", "coordinates": [ [ [ 362736.500819913635496, 6874636.020772276446223 ], [ 362723.412069877726026, 6874635.54447128996253 ], [ 362709.758323734451551, 6874646.598769517615438 ], [ 362703.034535570885055, 6874661.876806192100048 ], [ 362709.246092808782123, 6874666.011001232080162 ], [ 362705.890189891098998, 6874682.465443566441536 ], [ 362705.028987517696805, 6874694.723859366029501 ], [ 362725.946437181846704, 6874706.746580142527819 ], [ 362753.853864101984072, 6874715.735567103140056 ], [ 362778.438511799555272, 6874713.419772349298 ], [ 362806.091664724517614, 6874702.906303382478654 ], [ 362828.688420667487662, 6874689.978186544962227 ], [ 362849.997972785145976, 6874672.214479453861713 ], [ 362874.68086475378368, 6874644.767081785947084 ], [ 362901.845706781954505, 6874601.748785264790058 ], [ 362911.109367377590388, 6874580.406415502540767 ], [ 362927.734184805478435, 6874544.632810043171048 ], [ 362905.516053495986853, 6874533.109987076371908 ], [ 362884.518481893115677, 6874565.420677242800593 ], [ 362860.445456090266816, 6874594.066761787980795 ], [ 362835.997000020812266, 6874617.833617683500051 ], [ 362782.364608932635747, 6874639.313275806605816 ], [ 362768.456968249403872, 6874647.439795291982591 ], [ 362761.238865534192882, 6874649.468807547353208 ], [ 362752.627091791364364, 6874647.581827370449901 ], [ 362736.500819913635496, 6874636.020772276446223 ] ] ] } },
{ "type": "Feature", "properties": { "fid": 132, "LOCAL": "Rua Sete de Setembro, Bairro Entre Rios", "NUM_SETOR": "RS_PASSOFU_SR_011_SGB", "SITUACAO_01": "Ocorrido", "DESCRICAO": "Ocupação residencial em área urbana ao longo das margens do Rio Passo Fundo, entre ponte na avenida Sete de Setembro e o aterro da via férrea, sujeita a eventos recorrentes de inundação (Figura 1). O estreitamento da seção do canal pela ponte e sob o aterro da via férrea provoca o represamento e elevação do nível d´água (Figura 2). Na margem esquerda se observa atuação de erosão fluvial. No talude do aterro da via férrea ocorreu um deslizamento, em novembro de 2023, que provocou a destruição da moradia existente sobre o aterro. A oeste deste ponto existe outra edificação construída sobre o aterro (Figura 3, ao fundo). Edificações em madeira e padrão construtivo misto com média a alta vulnerabilidade aos processos ocorridos e potenciais (Figuras 1, 4 e 5). A infraestrutura conta com via pavimentada e com sistema de drenagem pluvial insuficiente (Figura 6).", "NUM_EDIF": 6, "NUM_PESS": 24, "GRAU_VULNE": "Médio", "GRAU_RISCO": "Alto" }, "geometry": { "type": "Polygon", "coordinates": [ [ [ 363686.879120399360545, 6873541.510710325092077 ], [ 363703.513566159643233, 6873554.659827290102839 ], [ 363713.106857625884004, 6873561.12904616817832 ], [ 363720.677786928485148, 6873567.934983810409904 ], [ 363730.344604368670844, 6873577.132090656086802 ], [ 363737.253785886918195, 6873585.340643024072051 ], [ 363749.907619420788251, 6873594.426689870655537 ], [ 363765.706758918240666, 6873577.096480987034738 ], [ 363780.968208555248566, 6873556.401413114741445 ], [ 363777.069278065988328, 6873541.946250608190894 ], [ 363773.8464823270333, 6873532.810820911079645 ], [ 363770.107507231237832, 6873519.585369867272675 ], [ 363760.078578315849882, 6873512.00015227869153 ], [ 363748.869977890513837, 6873505.499928407371044 ], [ 363738.444483194383793, 6873498.569265685044229 ], [ 363728.134112541447394, 6873492.191779267042875 ], [ 363686.879120399360545, 6873541.510710325092077 ] ] ] } },
{ "type": "Feature", "properties": { "fid": 133, "LOCAL": "Loteamento Canaã", "NUM_SETOR": "RS_PASSOFU_SR_015_SGB", "SITUACAO_01": "Ocorrido", "DESCRICAO": "Ocupação residencial em área urbana localizada na planície aluvionar do Arroio Miranda, sujeita a eventos recorrentes de inundação (Figuras 2 e 4). As inundações mais recentes ocorreram em setembro, outubro e novembro de 2023 e em maio de 2024, quando o nível d´água atingiu cerca de 0,5 metros nas casas (Figuras 1, 2, 3, 4 e 5). Os moradores, como forma de proteção contra as cheias, realizaram aterro nas áreas mais baixas do setor e a realocação de uma moradia para área mais alta. O setor é ocupado por construções em padrão misto (madeira/alvenaria) e alvenaria, com alta vulnerabilidade ao processo. A infraestrutura compreende vias pavimentadas e não pavimentadas com sistema de drenagem pluvial insuficiente (Figura 6).", "NUM_EDIF": 13, "NUM_PESS": 52, "GRAU_VULNE": "Alto", "GRAU_RISCO": "Alto" }, "geometry": { "type": "Polygon", "coordinates": [ [ [ 365640.771436432201881, 6877757.970599746331573 ], [ 365633.947188645717688, 6877743.912350240163505 ], [ 365581.4189803826157, 6877772.340798954479396 ], [ 365521.929475274228025, 6877813.10806573741138 ], [ 365523.805565084214322, 6877845.013783901929855 ], [ 365530.397880837495904, 6877855.506056915968657 ], [ 365596.490296822972596, 6877821.843444835394621 ], [ 365632.018702676868998, 6877790.217661941424012 ], [ 365636.214164246281143, 6877770.835338942706585 ], [ 365640.771436432201881, 6877757.970599746331573 ] ] ] } },
{ "type": "Feature", "properties": { "fid": 134, "LOCAL": "Rua Francisco Dal Conte/ Rua Manoel Borges, Bairro Zacchia", "NUM_SETOR": "RS_PASSOFU_SR_016_SGB", "SITUACAO_01": "Ocorrido", "DESCRICAO": "Ocupação residencial na planície aluvionar do Rio Passo Fundo, sujeita a eventos recorrentes de inundação. Os eventos mais recentes e de maiores dimensões ocorreram em setembro, outubro e novembro de 2023 e maio de 2024, destacando-se o primeiro pelos prejuízos resultantes da elevação do nível da água em cerca de 1 metro (Figuras 1 e 2). Após os eventos de 2023, foi lançado aterro como forma de proteção contra as cheias (Figura 3). A área é ocupada por construções predominantemente em madeira e padrão misto (alvenaria/madeira), com alta vulnerabilidade ao processo. A infraestrutura conta com vias não pavimentadas, carentes de sistema de drenagem pluvial e esgotamento sanitário. ", "NUM_EDIF": 7, "NUM_PESS": 28, "GRAU_VULNE": "Alto", "GRAU_RISCO": "Alto" }, "geometry": { "type": "Polygon", "coordinates": [ [ [ 359176.050167147186585, 6876822.851691337302327 ], [ 359173.846907220897265, 6876829.218333112075925 ], [ 359163.390344277024269, 6876886.948297422379255 ], [ 359153.434007178293541, 6876932.736713461577892 ], [ 359232.77953995752614, 6876980.940017463639379 ], [ 359242.186041025386658, 6876998.464194206520915 ], [ 359258.861023346544243, 6877011.099361258558929 ], [ 359281.807141154073179, 6876976.206329768523574 ], [ 359276.486205477034673, 6876951.946368649601936 ], [ 359263.360090107657015, 6876935.621940752491355 ], [ 359183.394544663722627, 6876905.954955050721765 ], [ 359200.63622014404973, 6876826.09460551571101 ], [ 359178.404759800352622, 6876823.27703167591244 ], [ 359176.050167147186585, 6876822.851691337302327 ] ] ] } },
{ "type": "Feature", "properties": { "fid": 135, "LOCAL": "Rua Quinto Giongo, Bairro Victor Issler", "NUM_SETOR": "RS_PASSOFU_SR_017_SGB", "SITUACAO_01": "Ocorrido", "DESCRICAO": "Ocupação residencial na planície aluvionar do Rio Passo Fundo, sujeita a eventos recorrentes de inundação (Figura 1). Os eventos mais recentes e de maiores dimensões ocorreram em setembro, outubro e novembro de 2023, e em maio de 2024. O evento de 2023 se destaca pelos prejuízos provocados pela lâmina de água que atingiu cerca de 50 cm, alcançando o assoalho das moradias (Figuras 2 e 3). A área é ocupada por construções em alvenaria, madeira e padrão misto, com vulnerabilidade média a alta frente ao processo. A infraestrutura conta com vias pavimentadas e sistema de drenagem pluvial insuficiente, enquanto as águas servidas são em grande parte lançadas diretamente do rio (Figuras 4, 5 e 6).", "NUM_EDIF": 38, "NUM_PESS": 152, "GRAU_VULNE": "Alto", "GRAU_RISCO": "Alto" }, "geometry": { "type": "Polygon", "coordinates": [ [ [ 361598.335651796660386, 6875221.260500193573534 ], [ 361604.749126167676877, 6875235.154049033299088 ], [ 361720.91446905490011, 6875161.478345001116395 ], [ 361743.393139433464967, 6875150.622084122151136 ], [ 361773.811669472954236, 6875143.46401899587363 ], [ 361791.721748098614626, 6875136.460806729272008 ], [ 361829.950375201413408, 6875121.280383614823222 ], [ 361848.812568380846642, 6875112.4852538947016 ], [ 361869.478508141706698, 6875103.034982899203897 ], [ 361863.557298934436403, 6875080.204355023801327 ], [ 361848.173944678565022, 6875081.602963211946189 ], [ 361835.579021619458217, 6875082.717110339552164 ], [ 361835.579021619458217, 6875082.717110339552164 ], [ 361825.851535249734297, 6875083.518445463851094 ], [ 361799.599088969407603, 6875089.309688493609428 ], [ 361778.460767674841918, 6875096.379738043993711 ], [ 361756.947161420015618, 6875104.766336250118911 ], [ 361723.034020289313048, 6875115.823455915786326 ], [ 361706.513934946153313, 6875122.849881492555141 ], [ 361703.337916221818887, 6875130.255117917433381 ], [ 361657.665849795215763, 6875147.953022436238825 ], [ 361607.172521320986561, 6875169.560107558965683 ], [ 361604.38089741114527, 6875180.544816873036325 ], [ 361582.487644723441917, 6875194.108496041037142 ], [ 361587.41186670033494, 6875202.570611842907965 ], [ 361593.148892702010926, 6875211.815638359636068 ], [ 361598.335651796660386, 6875221.260500193573534 ] ] ] } },
{ "type": "Feature", "properties": { "fid": 136, "LOCAL": "Ruas Quinze de Novembro e Alfredo Custódio, Bairro Centro", "NUM_SETOR": "RS_PASSOFU_SR_018_SGB", "SITUACAO_01": "Ocorrido", "DESCRICAO": "Ocupação residencial em ambas as margens da Sanga da Cruzinha (Figuras 1 e 2), atingida por inundações recorrentes destacando-se as registradas em setembro e outubro de 2023 e em maio de 2024, com lâmina d´água de 30 cm nas residências. O arroio se apresenta parcialmente canalizado na maior parte do setor e em diversos pontos ocorre processo de erosão fluvial provocando deformações nos muros de contenção das margens (Figuras 3, 4 e 5). Na Rua Alfredo Custódio, por intervenção de morador, o canal do arroio foi fechado com superfície impermeável (Figura 6). As construções no setor são predominantemente em alvenaria, com média a alta vulnerabilidade. A infraestrutura conta com vias pavimentadas e sistema de drenagem pluvial e cloacal.", "NUM_EDIF": 14, "NUM_PESS": 56, "GRAU_VULNE": "Alto", "GRAU_RISCO": "Alto" }, "geometry": { "type": "Polygon", "coordinates": [ [ [ 361900.269917877623811, 6872140.193987841717899 ], [ 361906.052327658631839, 6872138.333339737728238 ], [ 361925.331312932947185, 6872133.339112216606736 ], [ 361942.218878813728224, 6872128.532596201635897 ], [ 361938.629802353563718, 6872113.419107667170465 ], [ 361934.793826784938574, 6872100.491582748480141 ], [ 361919.466666362248361, 6872104.027185872197151 ], [ 361900.205112826777622, 6872109.104863564483821 ], [ 361875.438999643782154, 6872110.503493146039546 ], [ 361860.011123028991278, 6872109.033002492971718 ], [ 361845.691904345119838, 6872102.487345842644572 ], [ 361810.710477966465987, 6872096.86858098115772 ], [ 361808.842094935709611, 6872124.134153977036476 ], [ 361823.944363190792501, 6872125.248144466429949 ], [ 361835.18967317417264, 6872129.506647646427155 ], [ 361865.294654965517111, 6872138.822801943868399 ], [ 361878.933889464708045, 6872140.186586988158524 ], [ 361892.5815420266008, 6872140.827468847855926 ], [ 361900.269917877623811, 6872140.193987841717899 ] ] ] } },
{ "type": "Feature", "properties": { "fid": 137, "LOCAL": "Ruas Pedro Karkoff e Antonio Xavier, Bairro Tupinamba", "NUM_SETOR": "RS_PASSOFU_SR_019_SGB", "SITUACAO_01": "Ocorrido", "DESCRICAO": "Ocupação residencial em ambas as margens do Arroio Mariolin, sujeita a eventos recorrentes de inundação (Figuras 1 e 2). Os eventos mais recentes e de maiores dimensões ocorreram em setembro, outubro e novembro de 2023 e em maio de 2024, chegando a alcançar 1 metro de lâmina d´água nas residências (Figura 3). Em diversos pontos ao longo do canal, ocorre erosão das margens pelo escoamento fluvial provocando pequenos deslizamentos e exposição de raízes da vegetação, apesar de contenções com taipas de pedra e pneus em vários locais (Figuras 1, 2 e 4). A área é ocupada por construções em madeira, predominantemente, e padrão misto, com vulnerabilidade alta frente aos processos (Figuras 5 e 6). A infraestrutura conta com vias pavimentadas ou não, sistema de drenagem pluvial insuficiente e grande parte das águas servidas lançadas diretamente no arroio (Figura 4).", "NUM_EDIF": 19, "NUM_PESS": 76, "GRAU_VULNE": "Alto", "GRAU_RISCO": "Alto" }, "geometry": { "type": "Polygon", "coordinates": [ [ [ 361322.582740698591806, 6871046.89317724108696 ], [ 361252.189188018557616, 6871059.17552647087723 ], [ 361253.41048378078267, 6871073.466289529576898 ], [ 361259.850683084107004, 6871140.293735941872001 ], [ 361272.383545144286472, 6871194.00917754881084 ], [ 361307.869381536147557, 6871201.878786003217101 ], [ 361314.804347926867194, 6871225.379494151100516 ], [ 361320.80511412746273, 6871247.023398255929351 ], [ 361297.641642255941406, 6871269.516721489839256 ], [ 361298.023201580159366, 6871285.552757599391043 ], [ 361291.885394511511549, 6871287.248862829059362 ], [ 361297.364716766634956, 6871364.684526508674026 ], [ 361303.671283112431411, 6871372.71115061827004 ], [ 361311.303237740998156, 6871400.058574254624546 ], [ 361304.949165427009575, 6871401.993236180394888 ], [ 361311.997731145063881, 6871419.754588158801198 ], [ 361321.099310729361605, 6871426.209358473308384 ], [ 361327.305479328148067, 6871436.06821768078953 ], [ 361333.366386541107204, 6871446.86340310703963 ], [ 361342.542871010664385, 6871442.090523636899889 ], [ 361370.322043511841912, 6871429.778187295421958 ], [ 361362.811526198056526, 6871405.884122078306973 ], [ 361352.793773995479569, 6871368.224614275619388 ], [ 361380.142681089229882, 6871271.447743928059936 ], [ 361381.910325210308656, 6871269.247374005615711 ], [ 361363.451188314298633, 6871238.584710695780814 ], [ 361357.80323105287971, 6871210.553837797604501 ], [ 361330.790518879424781, 6871160.831296492367983 ], [ 361333.75040739774704, 6871126.64447014965117 ], [ 361324.717655659536831, 6871078.098634759895504 ], [ 361327.514438603655435, 6871057.076057032682002 ], [ 361322.582740698591806, 6871046.89317724108696 ] ] ] } },
{ "type": "Feature", "properties": { "fid": 138, "LOCAL": "Ruas Leonídia da Cunha Fiori e João Grossi, Loteamento Maggi", "NUM_SETOR": "RS_PASSOFU_SR_020_SGB", "SITUACAO_01": "Ocorrido", "DESCRICAO": "Ocupação residencial esparsa na planície aluvionar do Arroio Santo Antônio sujeita a eventos recorrentes de inundação. Eventos de maior magnitude ocorreram em setembro e outubro de 2023 e em maio de 2024, com lâmina de água de cerca de 50 cm e ocasionando a perda de móveis (Figura 1). A área é ocupada por residências em alvenaria e madeira, com média a alta vulnerabilidade (Figuras 2, 3, 4 e 5). A infraestrutura conta com vias pavimentadas ou não e apresenta sistema de drenagem pluvial insuficiente.", "NUM_EDIF": 13, "NUM_PESS": 52, "GRAU_VULNE": "Médio", "GRAU_RISCO": "Alto" }, "geometry": { "type": "Polygon", "coordinates": [ [ [ 367433.637037607375532, 6871183.777704709209502 ], [ 367415.89513336494565, 6871168.491126274690032 ], [ 367370.109946692944504, 6871214.502851529978216 ], [ 367358.057350799732376, 6871198.693887285888195 ], [ 367386.802115396189038, 6871168.282779665663838 ], [ 367384.464102354308125, 6871164.396853309124708 ], [ 367388.336532390443608, 6871160.697341438382864 ], [ 367357.628531658090651, 6871116.134080830961466 ], [ 367380.337854019831866, 6871093.806658677756786 ], [ 367417.725817230064422, 6871062.743589296005666 ], [ 367482.175761086633429, 6871009.13579704798758 ], [ 367527.796182059217244, 6871062.114104920998216 ], [ 367449.062456318584736, 6871146.977218268439174 ], [ 367430.220079244696535, 6871165.259349945932627 ], [ 367440.870764986029826, 6871175.788120159879327 ], [ 367433.637037607375532, 6871183.777704709209502 ] ] ] } },
{ "type": "Feature", "properties": { "fid": 139, "LOCAL": "Travessa Manoel da Silva/Rua Vitântonio Giordano, Bairro São Bento ", "NUM_SETOR": "RS_PASSOFU_SR_021_SGB", "SITUACAO_01": "Ocorrido", "DESCRICAO": "Ocupação residencial em área urbana às margens de Arroio Pinheiro Torto, atingidas por inundações recorrentes (Figuras 1 e 2). Os eventos mais recentes e de maior magnitude ocorreram em setembro de 2023, fevereiro e maio de 2024, maio. Nestes eventos, a lâmina d'água atingiu cerca de 50 cm no interior das casas (Figura 3). Em 2012 algumas famílias foram removidas mas retornaram poucos anos depois. A área é ocupada por residências em madeira e alvenaria, com alta vulnerabilidade aos processos. A infraestrutura conta com vias pavimentadas com sistema de drenagem pluvial insuficiente (Figura 6).", "NUM_EDIF": 60, "NUM_PESS": 240, "GRAU_VULNE": "Alto", "GRAU_RISCO": "Alto" }, "geometry": { "type": "Polygon", "coordinates": [ [ [ 359315.693226031784434, 6873570.55298237875104 ], [ 359344.687290154222865, 6873597.205343355424702 ], [ 359282.534648138913326, 6873652.782081626355648 ], [ 359229.215727618837263, 6873715.225130056962371 ], [ 359163.9959935011575, 6873793.349370682612062 ], [ 359123.563192876288667, 6873839.17405011691153 ], [ 359088.549729693564586, 6873891.060764827765524 ], [ 359137.570168472302612, 6873931.69896608684212 ], [ 359104.952142000780441, 6873946.614862514659762 ], [ 359092.412917799199931, 6873955.551545634865761 ], [ 359058.911444777040742, 6873934.858930315822363 ], [ 359059.674104236473795, 6873923.42259587533772 ], [ 359052.792590965866111, 6873913.429421128705144 ], [ 359068.385449515655637, 6873876.092550240457058 ], [ 359078.688173646165524, 6873848.722327352501452 ], [ 359076.66718360845698, 6873801.268087668344378 ], [ 359090.185240695602261, 6873777.94459009449929 ], [ 359049.633184121164959, 6873743.952920455485582 ], [ 359063.745380927517544, 6873725.713461261242628 ], [ 359068.016962337656878, 6873709.127061186358333 ], [ 359090.965881212963723, 6873703.381827817298472 ], [ 359107.529909746488556, 6873698.622710589319468 ], [ 359106.571260622353293, 6873682.564186356030405 ], [ 359102.897976457490586, 6873666.355445191264153 ], [ 359105.55156401055865, 6873662.847131565213203 ], [ 359116.780917062773369, 6873658.614649809896946 ], [ 359122.569787459797226, 6873655.025551094673574 ], [ 359136.928813361155335, 6873651.184176188893616 ], [ 359159.391663514135871, 6873642.365213450044394 ], [ 359172.900960655882955, 6873639.693650898523629 ], [ 359197.716020566644147, 6873635.150297738611698 ], [ 359254.687837921490427, 6873623.672628546133637 ], [ 359308.588446805952117, 6873573.089491953141987 ], [ 359315.693226031784434, 6873570.55298237875104 ] ] ] } },
{ "type": "Feature", "properties": { "fid": 140, "LOCAL": "Rua Amilton Pontes da Silva, Loteamento Garden", "NUM_SETOR": "RS_PASSOFU_SR_022_SGB", "SITUACAO_01": "Ocorrido", "DESCRICAO": "Ocupação residencial na margem esquerda de tributário do Arroio Pinheiro Torto, sujeita a eventos recorrentes de inundação (Figura 1). Os eventos mais recentes e de maior magnitude ocorreram em setembro e novembro de 2023 e em fevereiro e maio de 2024, e afetaram especialmente as moradias da margem esquerda do arroio.  A ocupação está situada a montante da ponte sobre o curso d’água, potencializando os efeitos da inundação pelo represamento do escoamento no canal pela redução da seção. Adicionalmente, o canal do arroio a montante da ponte (Figuras 2 e 3) apresenta seção com dimensões muito inferiores à do trecho de jusante (Figura 4). A área é ocupada por residências em alvenaria e madeira, com média a alta vulnerabilidade (Figura 5). A infraestrutura conta com vias pavimentadas e apresenta rede de esgotamento pluvial e cloacal (Figura 6).", "NUM_EDIF": 7, "NUM_PESS": 28, "GRAU_VULNE": "Médio", "GRAU_RISCO": "Alto" }, "geometry": { "type": "Polygon", "coordinates": [ [ [ 358699.877682446443941, 6873535.540888248942792 ], [ 358713.557031675707549, 6873533.337932016700506 ], [ 358730.24649596796371, 6873531.129724922589958 ], [ 358726.280210984870791, 6873496.492055414244533 ], [ 358723.969372560677584, 6873471.915605984628201 ], [ 358691.301882067578845, 6873476.506885515525937 ], [ 358693.711233224836178, 6873497.908762364648283 ], [ 358696.134180665481836, 6873518.169512592256069 ], [ 358699.877682446443941, 6873535.540888248942792 ] ] ] } },
{ "type": "Feature", "properties": { "fid": 141, "LOCAL": "Ruas José do Patrocínio e Clóvis Beviláqua, bairro Jaboticabal", "NUM_SETOR": "RS_PASSOFU_SR_023_SGB", "SITUACAO_01": "Ocorrido", "DESCRICAO": "Ocupação residencial esparsa na planície aluvionar de tributário do Arroio Pinheiro Torto, sujeita a eventos recorrentes de inundação (Figuras 1 e 2). Os eventos mais recentes e de maior magnitude ocorreram em setembro e novembro de 2023 e em fevereiro e maio de 2024, resultando em uma lâmina de água de 40 cm nas edificações mais próximas ao curso d´água (Figuras 2 e 3). A área é ocupada por construções em madeira e em padrão misto (alvenaria/madeira), com alta vulnerabilidade ao processo de inundação, e por uma construção em alvenaria utilizada como igreja (Figura 4). A infraestrutura conta com vias pavimentadas, mas o acesso interno ás edificações não é pavimentado.", "NUM_EDIF": 5, "NUM_PESS": 20, "GRAU_VULNE": "Alto", "GRAU_RISCO": "Alto" }, "geometry": { "type": "Polygon", "coordinates": [ [ [ 356475.38468628062401, 6872513.815618697553873 ], [ 356486.080858248053119, 6872512.485485310666263 ], [ 356497.04931646946352, 6872510.931691545061767 ], [ 356504.478566243080422, 6872524.232149401679635 ], [ 356525.518768403911963, 6872512.962450239807367 ], [ 356514.409535744925961, 6872485.001515176147223 ], [ 356463.816005317552481, 6872478.683466131798923 ], [ 356448.071047101810109, 6872478.271884986199439 ], [ 356417.554678340093233, 6872474.467841369099915 ], [ 356409.220292139332741, 6872478.669562448747456 ], [ 356419.630429600132629, 6872502.687074513174593 ], [ 356428.353616916690953, 6872499.328964760527015 ], [ 356457.640611326438375, 6872486.883052509278059 ], [ 356462.626151850272436, 6872503.864710121415555 ], [ 356464.911423609300982, 6872510.497617204673588 ], [ 356467.085946635284927, 6872515.422206453047693 ], [ 356475.38468628062401, 6872513.815618697553873 ] ] ] } },
{ "type": "Feature", "properties": { "fid": 142, "LOCAL": "Avenida João Catappan, Nossa Senhora da Paz", "NUM_SETOR": "RS_PASSOFU_SR_024_SGB", "SITUACAO_01": "Ocorrido", "DESCRICAO": "Ocupação em área rural localizada na planície aluvionar de curso d’água tributario do Arroio Pinheiro Torto, sujeita a eventos recorrentes de inundação (Figura 1). Eventos de maior magnitude ocorreram em setembro e novembro de 2023, e fevereiro e maio de 2024 (Figura 2, cedida pela DC de Passo Fundo). No último, a lâmina d'água atingiu 30 cm na frente e 80 cm nos fundos da casa, mais próximo do curso d’água. Em todas estas ocasiões, houve a remoção da moradora idosa, pela Defesa Civil Municipal. A área é ocupada por uma residência em alvenaria, com média a alta vulnerabilidade (Figura 3). A infraestrutura conta com via pavimentada (Figuras 4 e 5).", "NUM_EDIF": 1, "NUM_PESS": 4, "GRAU_VULNE": "Alto", "GRAU_RISCO": "Alto" }, "geometry": { "type": "Polygon", "coordinates": [ [ [ 359856.647697968175635, 6868771.968056068755686 ], [ 359859.40345427201828, 6868766.547596253454685 ], [ 359861.208862952888012, 6868763.003491358831525 ], [ 359866.482063593924977, 6868733.074055537581444 ], [ 359854.60846277337987, 6868733.303232980892062 ], [ 359816.064548428636044, 6868734.67981799505651 ], [ 359825.879759875126183, 6868760.173634572885931 ], [ 359838.967681216017809, 6868791.473811495117843 ], [ 359852.707725376880262, 6868779.419403556734324 ], [ 359856.647697968175635, 6868771.968056068755686 ] ] ] } },
{ "type": "Feature", "properties": { "fid": 143, "LOCAL": "Ruas São Marcos e São Mateus", "NUM_SETOR": "RS_PASSOFU_SR_025_SGB", "SITUACAO_01": "Ocorrido", "DESCRICAO": "Ocupação residencial em área urbana localizada na planície aluvionar do Rio Passo Fundo, sujeita a eventos recorrentes de inundação (Figuras 1 e 2). Eventos mais recentes e de maior magnitude ocorreram em setembro e outubro de 2023, em maio de 2024 e em junho de 2025 (Figuras 3 e 4, esta última cedida pela DC de Passo Fundo). A área é ocupada por residências em madeira e alvenaria com vulnerabilidade variável de alta a media (Figuras 4, 5 e 6). A infraestrutura conta com vias pavimentadas e sistema de drenagem pluvial insuficiente (Figura 6).", "NUM_EDIF": 26, "NUM_PESS": 104, "GRAU_VULNE": "Médio", "GRAU_RISCO": "Alto" }, "geometry": { "type": "Polygon", "coordinates": [ [ [ 365708.220560214482248, 6874627.412354527041316 ], [ 365710.20891883270815, 6874657.023633562028408 ], [ 365709.923940049717203, 6874682.222166540101171 ], [ 365691.347723887418397, 6874684.630432441830635 ], [ 365673.061055195052177, 6874686.857835189439356 ], [ 365641.621149167069234, 6874690.120768593624234 ], [ 365638.387983493274078, 6874678.504551749676466 ], [ 365632.563249073049519, 6874676.448391982354224 ], [ 365613.163470878556836, 6874678.509113874286413 ], [ 365574.000974437105469, 6874681.666082140058279 ], [ 365562.189315067254938, 6874676.239871917292476 ], [ 365548.235639079008251, 6874677.529338225722313 ], [ 365545.57329603144899, 6874657.958553405478597 ], [ 365537.144234610139392, 6874652.435150573030114 ], [ 365525.924199458269868, 6874652.850885488092899 ], [ 365523.830984931788407, 6874639.619153710082173 ], [ 365513.09565347910393, 6874639.678501513786614 ], [ 365497.238075622241013, 6874639.317955294623971 ], [ 365497.184079631231725, 6874615.796197989955544 ], [ 365516.919159497949295, 6874613.305752400308847 ], [ 365556.14725424721837, 6874620.259645327925682 ], [ 365569.622858784801792, 6874633.176749435253441 ], [ 365596.257573432405479, 6874635.769329620525241 ], [ 365647.000382788362913, 6874633.72521732840687 ], [ 365687.931040567345917, 6874627.969653092324734 ], [ 365708.220560214482248, 6874627.412354527041316 ] ] ] } }
]
}
